{"type": "FeatureCollection", "id": "http://leiza-scit.github.io/CAA2026-alligator/Point_collection", "name": "Point Instances Collection", "features": [{"type": "Feature", "id": "http://leiza-scit.github.io/CAA2026-alligator/Dn8Bn0_geom", "name": " (ae:Dn8Bn0_geom)", "dateprops": [], "properties": {"http://fuzzy-sl.squirrel.link/ontology/certaintyDesc": "Mapping done by Allard Mees.", "http://rdfs.org/ns/void#inDataset.value": "2539"}, "geometry": {"type": "Point", "coordinates": [8.233333, 47.46667], "crs": "4326"}}, {"type": "Feature", "id": "http://leiza-scit.github.io/CAA2026-alligator/k8nxQm_geom", "name": " (ae:k8nxQm_geom)", "dateprops": [], "properties": {"http://fuzzy-sl.squirrel.link/ontology/certaintyDesc": "Mapping done by Allard Mees.", "http://rdfs.org/ns/void#inDataset.value": "2539"}, "geometry": {"type": "Point", "coordinates": [8.35978, 49.63007], "crs": "4326"}}, {"type": "Feature", "id": "http://leiza-scit.github.io/CAA2026-alligator/l7JM6p_geom", "name": " (ae:l7JM6p_geom)", "dateprops": [], "properties": {"http://fuzzy-sl.squirrel.link/ontology/certaintyDesc": "Mapping done by Allard Mees.", "http://rdfs.org/ns/void#inDataset.value": "2539"}, "geometry": {"type": "Point", "coordinates": [7.17052, 51.73947], "crs": "4326"}}, {"type": "Feature", "id": "http://leiza-scit.github.io/CAA2026-alligator/Lb2pZM_geom", "name": " (ae:Lb2pZM_geom)", "dateprops": [], "properties": {"http://fuzzy-sl.squirrel.link/ontology/certaintyDesc": "Mapping done by Allard Mees.", "http://rdfs.org/ns/void#inDataset.value": "2539"}, "geometry": {"type": "Point", "coordinates": [4.44349, 50.51455], "crs": "4326"}}, {"type": "Feature", "id": "http://leiza-scit.github.io/CAA2026-alligator/L77adz_geom", "name": " (ae:L77adz_geom)", "dateprops": [], "properties": {"http://fuzzy-sl.squirrel.link/ontology/certaintyDesc": "Mapping done by Allard Mees.", "http://rdfs.org/ns/void#inDataset.value": "2539"}, "geometry": {"type": "Point", "coordinates": [8.7665, 50.371], "crs": "4326"}}, {"type": "Feature", "id": "http://leiza-scit.github.io/CAA2026-alligator/Voa579_geom", "name": " (ae:Voa579_geom)", "dateprops": [], "properties": {"http://fuzzy-sl.squirrel.link/ontology/certaintyDesc": "Mapping done by Allard Mees.", "http://rdfs.org/ns/void#inDataset.value": "2539"}, "geometry": {"type": "Point", "coordinates": [5.1455, 50.6296], "crs": "4326"}}, {"type": "Feature", "id": "http://leiza-scit.github.io/CAA2026-alligator/collections/cluster_bc0015_ad0013_geom", "name": " (aecol:cluster_bc0015_ad0013_geom)", "dateprops": [], "properties": {"http://rdfs.org/ns/void#inDataset.value": "2539"}, "geometry": {"type": "Point", "coordinates": [8.35978, 49.63007], "crs": "4326"}}, {"type": "Feature", "id": "http://leiza-scit.github.io/CAA2026-alligator/YR56XQ_geom", "name": " (ae:YR56XQ_geom)", "dateprops": [], "properties": {"http://fuzzy-sl.squirrel.link/ontology/certaintyDesc": "Mapping done by Allard Mees.", "http://rdfs.org/ns/void#inDataset.value": "2539"}, "geometry": {"type": "Point", "coordinates": [10.90977, 47.90988], "crs": "4326"}}, {"type": "Feature", "id": "http://leiza-scit.github.io/CAA2026-alligator/VADk8Y_geom", "name": " (ae:VADk8Y_geom)", "dateprops": [], "properties": {"http://fuzzy-sl.squirrel.link/ontology/certaintyDesc": "Mapping done by Allard Mees.", "http://rdfs.org/ns/void#inDataset.value": "2539"}, "geometry": {"type": "Point", "coordinates": [5.884209, 51.839831], "crs": "4326"}}, {"type": "Feature", "id": "http://leiza-scit.github.io/CAA2026-alligator/G3Yage_geom", "name": " (ae:G3Yage_geom)", "dateprops": [], "properties": {"http://fuzzy-sl.squirrel.link/ontology/certaintyDesc": "Mapping done by Allard Mees.", "http://rdfs.org/ns/void#inDataset.value": "2539"}, "geometry": {"type": "Point", "coordinates": [5.884209, 51.839831], "crs": "4326"}}, {"type": "Feature", "id": "http://leiza-scit.github.io/CAA2026-alligator/site_Trier-Petrisberg_geom", "name": " (ae:site_Trier-Petrisberg_geom)", "dateprops": [], "properties": {"http://fuzzy-sl.squirrel.link/ontology/certaintyDesc": "Mapping done by Allard Mees.", "http://rdfs.org/ns/void#inDataset.value": "2539"}, "geometry": {"type": "Point", "coordinates": [6.664117, 49.752021], "crs": "4326"}}, {"type": "Feature", "id": "http://leiza-scit.github.io/CAA2026-alligator/ZleDlL_geom", "name": " (ae:ZleDlL_geom)", "dateprops": [], "properties": {"http://fuzzy-sl.squirrel.link/ontology/certaintyDesc": "Mapping done by Allard Mees.", "http://rdfs.org/ns/void#inDataset.value": "2539"}, "geometry": {"type": "Point", "coordinates": [8.31083, 47.58889], "crs": "4326"}}, {"type": "Feature", "id": "http://leiza-scit.github.io/CAA2026-alligator/JeMZlk_geom", "name": " (ae:JeMZlk_geom)", "dateprops": [], "properties": {"http://fuzzy-sl.squirrel.link/ontology/certaintyDesc": "Mapping done by Allard Mees.", "http://rdfs.org/ns/void#inDataset.value": "2539"}, "geometry": {"type": "Point", "coordinates": [5.884209, 51.839831], "crs": "4326"}}, {"type": "Feature", "id": "http://leiza-scit.github.io/CAA2026-alligator/ZjEqbL_geom", "name": " (ae:ZjEqbL_geom)", "dateprops": [], "properties": {"http://fuzzy-sl.squirrel.link/ontology/certaintyDesc": "Mapping done by Allard Mees.", "http://rdfs.org/ns/void#inDataset.value": "2539"}, "geometry": {"type": "Point", "coordinates": [8.233333, 47.46667], "crs": "4326"}}, {"type": "Feature", "id": "http://leiza-scit.github.io/CAA2026-alligator/y2x4m1_geom", "name": " (ae:y2x4m1_geom)", "dateprops": [], "properties": {"http://fuzzy-sl.squirrel.link/ontology/certaintyDesc": "Mapping done by Allard Mees.", "http://rdfs.org/ns/void#inDataset.value": "2539"}, "geometry": {"type": "Point", "coordinates": [5.16186, 52.05774], "crs": "4326"}}, {"type": "Feature", "id": "http://leiza-scit.github.io/CAA2026-alligator/Jl2mN8_geom", "name": " (ae:Jl2mN8_geom)", "dateprops": [], "properties": {"http://fuzzy-sl.squirrel.link/ontology/certaintyDesc": "Mapping done by Allard Mees.", "http://rdfs.org/ns/void#inDataset.value": "2539"}, "geometry": {"type": "Point", "coordinates": [8.29349, 47.59059], "crs": "4326"}}, {"type": "Feature", "id": "http://leiza-scit.github.io/CAA2026-alligator/ZEvk2q_geom", "name": " (ae:ZEvk2q_geom)", "dateprops": [], "properties": {"http://fuzzy-sl.squirrel.link/ontology/certaintyDesc": "Mapping done by Allard Mees.", "http://rdfs.org/ns/void#inDataset.value": "2539"}, "geometry": {"type": "Point", "coordinates": [7.72231, 47.53323], "crs": "4326"}}, {"type": "Feature", "id": "http://leiza-scit.github.io/CAA2026-alligator/XRJlAV_geom", "name": " (ae:XRJlAV_geom)", "dateprops": [], "properties": {"http://fuzzy-sl.squirrel.link/ontology/certaintyDesc": "Mapping done by Allard Mees.", "http://rdfs.org/ns/void#inDataset.value": "2539"}, "geometry": {"type": "Point", "coordinates": [-8.49341, 40.09905], "crs": "4326"}}, {"type": "Feature", "id": "http://leiza-scit.github.io/CAA2026-alligator/l84Nog_geom", "name": " (ae:l84Nog_geom)", "dateprops": [], "properties": {"http://fuzzy-sl.squirrel.link/ontology/certaintyDesc": "Mapping done by Allard Mees.", "http://rdfs.org/ns/void#inDataset.value": "2539"}, "geometry": {"type": "Point", "coordinates": [10.88173, 48.39021], "crs": "4326"}}, {"type": "Feature", "id": "http://leiza-scit.github.io/CAA2026-alligator/Y5e3Dg_geom", "name": " (ae:Y5e3Dg_geom)", "dateprops": [], "properties": {"http://fuzzy-sl.squirrel.link/ontology/certaintyDesc": "Mapping done by Allard Mees.", "http://rdfs.org/ns/void#inDataset.value": "2539"}, "geometry": {"type": "Point", "coordinates": [7.04067, 46.88028], "crs": "4326"}}, {"type": "Feature", "id": "http://leiza-scit.github.io/CAA2026-alligator/Zdqgb9_geom", "name": " (ae:Zdqgb9_geom)", "dateprops": [], "properties": {"http://fuzzy-sl.squirrel.link/ontology/certaintyDesc": "Mapping done by Allard Mees.", "http://rdfs.org/ns/void#inDataset.value": "2539"}, "geometry": {"type": "Point", "coordinates": [8.7535, 50.34167], "crs": "4326"}}, {"type": "Feature", "id": "http://leiza-scit.github.io/CAA2026-alligator/bmWAEr_geom", "name": " (ae:bmWAEr_geom)", "dateprops": [], "properties": {"http://fuzzy-sl.squirrel.link/ontology/certaintyDesc": "Mapping done by Allard Mees.", "http://rdfs.org/ns/void#inDataset.value": "2539"}, "geometry": {"type": "Point", "coordinates": [7.593, 47.5557], "crs": "4326"}}, {"type": "Feature", "id": "http://leiza-scit.github.io/CAA2026-alligator/RxjVWG_geom", "name": " (ae:RxjVWG_geom)", "dateprops": [], "properties": {"http://fuzzy-sl.squirrel.link/ontology/certaintyDesc": "Mapping done by Allard Mees.", "http://rdfs.org/ns/void#inDataset.value": "2539"}, "geometry": {"type": "Point", "coordinates": [4.66829, 52.45207], "crs": "4326"}}, {"type": "Feature", "id": "http://leiza-scit.github.io/CAA2026-alligator/Q5qW8B_geom", "name": " (ae:Q5qW8B_geom)", "dateprops": [], "properties": {"http://fuzzy-sl.squirrel.link/ontology/certaintyDesc": "Mapping done by Allard Mees.", "http://rdfs.org/ns/void#inDataset.value": "2539"}, "geometry": {"type": "Point", "coordinates": [8.233333, 47.46667], "crs": "4326"}}, {"type": "Feature", "id": "http://leiza-scit.github.io/CAA2026-alligator/PwKzM5_geom", "name": " (ae:PwKzM5_geom)", "dateprops": [], "properties": {"http://fuzzy-sl.squirrel.link/ontology/certaintyDesc": "Mapping done by Allard Mees.", "http://rdfs.org/ns/void#inDataset.value": "2539"}, "geometry": {"type": "Point", "coordinates": [7.72231, 47.53323], "crs": "4326"}}, {"type": "Feature", "id": "http://leiza-scit.github.io/CAA2026-alligator/WVBqb6_geom", "name": " (ae:WVBqb6_geom)", "dateprops": [], "properties": {"http://fuzzy-sl.squirrel.link/ontology/certaintyDesc": "Mapping done by Allard Mees.", "http://rdfs.org/ns/void#inDataset.value": "2539"}, "geometry": {"type": "Point", "coordinates": [4.86063, 50.45949], "crs": "4326"}}, {"type": "Feature", "id": "http://leiza-scit.github.io/CAA2026-alligator/Xdo5Y9_geom", "name": " (ae:Xdo5Y9_geom)", "dateprops": [], "properties": {"http://fuzzy-sl.squirrel.link/ontology/certaintyDesc": "Mapping done by Allard Mees.", "http://rdfs.org/ns/void#inDataset.value": "2539"}, "geometry": {"type": "Point", "coordinates": [8.73756, 47.49726], "crs": "4326"}}, {"type": "Feature", "id": "http://leiza-scit.github.io/CAA2026-alligator/OVXy7g_geom", "name": " (ae:OVXy7g_geom)", "dateprops": [], "properties": {"http://fuzzy-sl.squirrel.link/ontology/certaintyDesc": "Mapping done by Allard Mees.", "http://rdfs.org/ns/void#inDataset.value": "2539"}, "geometry": {"type": "Point", "coordinates": [7.58444, 51.6125], "crs": "4326"}}, {"type": "Feature", "id": "http://leiza-scit.github.io/CAA2026-alligator/ZXxDlB_geom", "name": " (ae:ZXxDlB_geom)", "dateprops": [], "properties": {"http://fuzzy-sl.squirrel.link/ontology/certaintyDesc": "Mapping done by Allard Mees.", "http://rdfs.org/ns/void#inDataset.value": "2539"}, "geometry": {"type": "Point", "coordinates": [6.60087, 46.51651], "crs": "4326"}}, {"type": "Feature", "id": "http://leiza-scit.github.io/CAA2026-alligator/l5MgeA_geom", "name": " (ae:l5MgeA_geom)", "dateprops": [], "properties": {"http://fuzzy-sl.squirrel.link/ontology/certaintyDesc": "Mapping done by Allard Mees.", "http://rdfs.org/ns/void#inDataset.value": "2539"}, "geometry": {"type": "Point", "coordinates": [5.6938, 50.84841], "crs": "4326"}}, {"type": "Feature", "id": "http://leiza-scit.github.io/CAA2026-alligator/nx57Z1_geom", "name": " (ae:nx57Z1_geom)", "dateprops": [], "properties": {"http://fuzzy-sl.squirrel.link/ontology/certaintyDesc": "Mapping done by Allard Mees.", "http://rdfs.org/ns/void#inDataset.value": "2539"}, "geometry": {"type": "Point", "coordinates": [8.7522, 50.36987], "crs": "4326"}}, {"type": "Feature", "id": "http://leiza-scit.github.io/CAA2026-alligator/oppg2W_geom", "name": " (ae:oppg2W_geom)", "dateprops": [], "properties": {"http://fuzzy-sl.squirrel.link/ontology/certaintyDesc": "Mapping done by Allard Mees.", "http://rdfs.org/ns/void#inDataset.value": "2539"}, "geometry": {"type": "Point", "coordinates": [8.27387, 49.99891], "crs": "4326"}}, {"type": "Feature", "id": "http://leiza-scit.github.io/CAA2026-alligator/MqLE1V_geom", "name": " (ae:MqLE1V_geom)", "dateprops": [], "properties": {"http://fuzzy-sl.squirrel.link/ontology/certaintyDesc": "Mapping done by Allard Mees.", "http://rdfs.org/ns/void#inDataset.value": "2539"}, "geometry": {"type": "Point", "coordinates": [7.593, 47.5557], "crs": "4326"}}, {"type": "Feature", "id": "http://leiza-scit.github.io/CAA2026-alligator/gJnjWe_geom", "name": " (ae:gJnjWe_geom)", "dateprops": [], "properties": {"http://fuzzy-sl.squirrel.link/ontology/certaintyDesc": "Mapping done by Allard Mees.", "http://rdfs.org/ns/void#inDataset.value": "2539"}, "geometry": {"type": "Point", "coordinates": [6.46999, 51.64639], "crs": "4326"}}, {"type": "Feature", "id": "http://leiza-scit.github.io/CAA2026-alligator/zmqV3M_geom", "name": " (ae:zmqV3M_geom)", "dateprops": [], "properties": {"http://fuzzy-sl.squirrel.link/ontology/certaintyDesc": "Mapping done by Allard Mees.", "http://rdfs.org/ns/void#inDataset.value": "2539"}, "geometry": {"type": "Point", "coordinates": [8.540724, 47.373008], "crs": "4326"}}, {"type": "Feature", "id": "http://leiza-scit.github.io/CAA2026-alligator/OgMWNb_geom", "name": " (ae:OgMWNb_geom)", "dateprops": [], "properties": {"http://fuzzy-sl.squirrel.link/ontology/certaintyDesc": "Mapping done by Allard Mees.", "http://rdfs.org/ns/void#inDataset.value": "2539"}, "geometry": {"type": "Point", "coordinates": [10.89655, 48.37277], "crs": "4326"}}, {"type": "Feature", "id": "http://leiza-scit.github.io/CAA2026-alligator/X38zVk_geom", "name": " (ae:X38zVk_geom)", "dateprops": [], "properties": {"http://fuzzy-sl.squirrel.link/ontology/certaintyDesc": "Mapping done by Allard Mees.", "http://rdfs.org/ns/void#inDataset.value": "2539"}, "geometry": {"type": "Point", "coordinates": [5.85972, 49.54028], "crs": "4326"}}, {"type": "Feature", "id": "http://leiza-scit.github.io/CAA2026-alligator/dNoZ2V_geom", "name": " (ae:dNoZ2V_geom)", "dateprops": [], "properties": {"http://fuzzy-sl.squirrel.link/ontology/certaintyDesc": "Mapping done by Allard Mees.", "http://rdfs.org/ns/void#inDataset.value": "2539"}, "geometry": {"type": "Point", "coordinates": [5.884209, 51.839831], "crs": "4326"}}, {"type": "Feature", "id": "http://leiza-scit.github.io/CAA2026-alligator/collections/cluster_bc0011_bc0007_geom", "name": " (aecol:cluster_bc0011_bc0007_geom)", "dateprops": [], "properties": {"http://rdfs.org/ns/void#inDataset.value": "2539"}, "geometry": {"type": "Point", "coordinates": [7.58444, 51.6125], "crs": "4326"}}, {"type": "Feature", "id": "http://leiza-scit.github.io/CAA2026-alligator/MZ2ObV_geom", "name": " (ae:MZ2ObV_geom)", "dateprops": [], "properties": {"http://fuzzy-sl.squirrel.link/ontology/certaintyDesc": "Mapping done by Allard Mees.", "http://rdfs.org/ns/void#inDataset.value": "2539"}, "geometry": {"type": "Point", "coordinates": [6.67, 51.43167], "crs": "4326"}}, {"type": "Feature", "id": "http://leiza-scit.github.io/CAA2026-alligator/ZN6ywM_geom", "name": " (ae:ZN6ywM_geom)", "dateprops": [], "properties": {"http://fuzzy-sl.squirrel.link/ontology/certaintyDesc": "Mapping done by Allard Mees.", "http://rdfs.org/ns/void#inDataset.value": "2539"}, "geometry": {"type": "Point", "coordinates": [7.09938, 50.7448], "crs": "4326"}}, {"type": "Feature", "id": "http://leiza-scit.github.io/CAA2026-alligator/k24W0n_geom", "name": " (ae:k24W0n_geom)", "dateprops": [], "properties": {"http://fuzzy-sl.squirrel.link/ontology/certaintyDesc": "Mapping done by Allard Mees.", "http://rdfs.org/ns/void#inDataset.value": "2539"}, "geometry": {"type": "Point", "coordinates": [8.23879, 50.08434], "crs": "4326"}}, {"type": "Feature", "id": "http://leiza-scit.github.io/CAA2026-alligator/o3MwAm_geom", "name": " (ae:o3MwAm_geom)", "dateprops": [], "properties": {"http://fuzzy-sl.squirrel.link/ontology/certaintyDesc": "Mapping done by Allard Mees.", "http://rdfs.org/ns/void#inDataset.value": "2539"}, "geometry": {"type": "Point", "coordinates": [6.721944, 51.183889], "crs": "4326"}}, {"type": "Feature", "id": "http://leiza-scit.github.io/CAA2026-alligator/Wr3Lvj_geom", "name": " (ae:Wr3Lvj_geom)", "dateprops": [], "properties": {"http://fuzzy-sl.squirrel.link/ontology/certaintyDesc": "Mapping done by Allard Mees.", "http://rdfs.org/ns/void#inDataset.value": "2539"}, "geometry": {"type": "Point", "coordinates": [5.46486, 50.78096], "crs": "4326"}}, {"type": "Feature", "id": "http://leiza-scit.github.io/CAA2026-alligator/A4m6Rv_geom", "name": " (ae:A4m6Rv_geom)", "dateprops": [], "properties": {"http://fuzzy-sl.squirrel.link/ontology/certaintyDesc": "Mapping done by Allard Mees.", "http://rdfs.org/ns/void#inDataset.value": "2539"}, "geometry": {"type": "Point", "coordinates": [9.74073, 47.4979], "crs": "4326"}}, {"type": "Feature", "id": "http://leiza-scit.github.io/CAA2026-alligator/YRRWbO_geom", "name": " (ae:YRRWbO_geom)", "dateprops": [], "properties": {"http://fuzzy-sl.squirrel.link/ontology/certaintyDesc": "Mapping done by Allard Mees.", "http://rdfs.org/ns/void#inDataset.value": "2539"}, "geometry": {"type": "Point", "coordinates": [7.72231, 47.53323], "crs": "4326"}}, {"type": "Feature", "id": "http://leiza-scit.github.io/CAA2026-alligator/WA9n3v_geom", "name": " (ae:WA9n3v_geom)", "dateprops": [], "properties": {"http://fuzzy-sl.squirrel.link/ontology/certaintyDesc": "Mapping done by Allard Mees.", "http://rdfs.org/ns/void#inDataset.value": "2539"}, "geometry": {"type": "Point", "coordinates": [6.67, 51.43167], "crs": "4326"}}], "numberMatched": 47, "numberReturned": 47, "bbox": [-8.49341, 40.09905, 10.90977, 52.45207], "crs": "http://www.opengis.net/def/crs/EPSG/0/4326"}