{"type": "FeatureCollection", "id": "http://leiza-scit.github.io/CAA2026-alligator/E53_Place_collection", "name": "E53_Place Instances Collection", "features": [{"type": "Feature", "id": "http://leiza-scit.github.io/CAA2026-alligator/WzemGZ", "name": "Zurzach, Lager (ae:WzemGZ)", "dateprops": ["end"], "properties": {"http://www.w3.org/2000/01/rdf-schema#label": "Zurzach, Lager", "http://archaeology.link/ontology#cax": "0.6625", "http://archaeology.link/ontology#cay": "-0.054", "http://archaeology.link/ontology#caz": "-0.2208", "http://archaeology.link/ontology#endfixed": "false", "http://archaeology.link/ontology#estimatedend": "28.0", "http://archaeology.link/ontology#estimatedstart": "16.0", "http://archaeology.link/ontology#nfen": "Velsen", "http://archaeology.link/ontology#nfsn": "Velsen", "http://archaeology.link/ontology#osm_tag": "historic=archaeological_site", "http://archaeology.link/ontology#startfixed": "false", "http://purl.org/dc/elements/1.1/identifier": "WzemGZ", "begin": "0016", "end": "0028", "http://rdfs.org/ns/void#inDataset.value": "2580"}, "geometry": {"type": "Point", "coordinates": [8.29349, 47.59059], "crs": "4326"}}, {"type": "Feature", "id": "http://leiza-scit.github.io/CAA2026-alligator/qwBmyK", "name": "Basel, Lager (ae:qwBmyK)", "dateprops": ["end"], "properties": {"http://www.w3.org/2000/01/rdf-schema#label": "Basel, Lager", "http://archaeology.link/ontology#cax": "-1.2041", "http://archaeology.link/ontology#cay": "-0.5444", "http://archaeology.link/ontology#caz": "-0.0093", "http://archaeology.link/ontology#endfixed": "false", "http://archaeology.link/ontology#estimatedend": "-9.0", "http://archaeology.link/ontology#estimatedstart": "-15.0", "http://archaeology.link/ontology#nfen": "Dangstetten", "http://archaeology.link/ontology#nfsn": "Dangstetten", "http://archaeology.link/ontology#osm_tag": "historic=archaeological_site", "http://archaeology.link/ontology#startfixed": "false", "http://purl.org/dc/elements/1.1/identifier": "qwBmyK", "begin": "-0015", "end": "-0009", "http://rdfs.org/ns/void#inDataset.value": "2580"}, "geometry": {"type": "Point", "coordinates": [7.593, 47.5557], "crs": "4326"}}, {"type": "Feature", "id": "http://leiza-scit.github.io/CAA2026-alligator/Kqlgor", "name": "Conimbriga (ae:Kqlgor)", "dateprops": ["end"], "properties": {"http://www.w3.org/2000/01/rdf-schema#label": "Conimbriga", "http://archaeology.link/ontology#cax": "-0.1065", "http://archaeology.link/ontology#cay": "0.0456", "http://archaeology.link/ontology#caz": "-0.1097", "http://archaeology.link/ontology#endfixed": "false", "http://archaeology.link/ontology#estimatedend": "9.0", "http://archaeology.link/ontology#estimatedstart": "-7.0", "http://archaeology.link/ontology#nfen": "Haltern", "http://archaeology.link/ontology#nfsn": "Haltern", "http://archaeology.link/ontology#osm_tag": "historic=archaeological_site", "http://archaeology.link/ontology#startfixed": "false", "http://purl.org/dc/elements/1.1/identifier": "Kqlgor", "begin": "-0007", "end": "0009", "http://rdfs.org/ns/void#inDataset.value": "2580"}, "geometry": {"type": "Point", "coordinates": [-8.49341, 40.09905], "crs": "4326"}}, {"type": "Feature", "id": "http://leiza-scit.github.io/CAA2026-alligator/RPXQZG", "name": "Augsburg-Oberhausen (ae:RPXQZG)", "dateprops": ["end"], "properties": {"http://www.w3.org/2000/01/rdf-schema#label": "Augsburg-Oberhausen", "http://archaeology.link/ontology#cax": "-0.2301", "http://archaeology.link/ontology#cay": "0.2052", "http://archaeology.link/ontology#caz": "-0.153", "http://archaeology.link/ontology#endfixed": "false", "http://archaeology.link/ontology#estimatedend": "9.0", "http://archaeology.link/ontology#estimatedstart": "-16.0", "http://archaeology.link/ontology#nfen": "Haltern", "http://archaeology.link/ontology#nfsn": "Neuss", "http://archaeology.link/ontology#osm_tag": "landuse=brownfield", "http://archaeology.link/ontology#startfixed": "false", "http://purl.org/dc/elements/1.1/identifier": "RPXQZG", "begin": "-0016", "end": "0009", "http://rdfs.org/ns/void#inDataset.value": "2580"}, "geometry": {"type": "Point", "coordinates": [10.88173, 48.39021], "crs": "4326"}}, {"type": "Feature", "id": "http://leiza-scit.github.io/CAA2026-alligator/ZpP2RM", "name": "Vechten (ae:ZpP2RM)", "dateprops": ["end"], "properties": {"http://www.w3.org/2000/01/rdf-schema#label": "Vechten", "http://archaeology.link/ontology#cax": "0.8037", "http://archaeology.link/ontology#cay": "-0.2304", "http://archaeology.link/ontology#caz": "0.3963", "http://archaeology.link/ontology#endfixed": "false", "http://archaeology.link/ontology#estimatedend": "28.0", "http://archaeology.link/ontology#estimatedstart": "16.0", "http://archaeology.link/ontology#nfen": "Velsen", "http://archaeology.link/ontology#nfsn": "Velsen", "http://archaeology.link/ontology#startfixed": "false", "http://purl.org/dc/elements/1.1/identifier": "ZpP2RM", "begin": "0016", "end": "0028", "http://rdfs.org/ns/void#inDataset.value": "2580"}, "geometry": {"type": "Point", "coordinates": [5.16186, 52.05774], "crs": "4326"}}, {"type": "Feature", "id": "http://leiza-scit.github.io/CAA2026-alligator/V79JlL", "name": "Neuss (ae:V79JlL)", "dateprops": ["end"], "properties": {"http://www.w3.org/2000/01/rdf-schema#label": "Neuss", "http://archaeology.link/ontology#cax": "-0.4107", "http://archaeology.link/ontology#cay": "0.0405", "http://archaeology.link/ontology#caz": "-0.055", "http://archaeology.link/ontology#endfixed": "false", "http://archaeology.link/ontology#estimatedend": "8.0", "http://archaeology.link/ontology#estimatedstart": "-16.0", "http://archaeology.link/ontology#nfen": "R\u00f6dgen", "http://archaeology.link/ontology#osm_tag": "historic=archaeological_site", "http://archaeology.link/ontology#startfixed": "true", "http://purl.org/dc/elements/1.1/identifier": "V79JlL", "begin": "-0016", "end": "0008", "http://rdfs.org/ns/void#inDataset.value": "2580"}, "geometry": {"type": "Point", "coordinates": [6.721944, 51.183889], "crs": "4326"}}, {"type": "Feature", "id": "http://leiza-scit.github.io/CAA2026-alligator/b1078Y", "name": "Augst, Insula 20 (ae:b1078Y)", "dateprops": ["end"], "properties": {"http://www.w3.org/2000/01/rdf-schema#label": "Augst, Insula 20", "http://archaeology.link/ontology#cax": "0.5106", "http://archaeology.link/ontology#cay": "-0.1593", "http://archaeology.link/ontology#caz": "0.2908", "http://archaeology.link/ontology#endfixed": "false", "http://archaeology.link/ontology#estimatedend": "28.0", "http://archaeology.link/ontology#estimatedstart": "16.0", "http://archaeology.link/ontology#nfen": "Velsen", "http://archaeology.link/ontology#nfsn": "Velsen", "http://archaeology.link/ontology#osm_tag": "building=yes", "http://archaeology.link/ontology#startfixed": "false", "http://purl.org/dc/elements/1.1/identifier": "b1078Y", "begin": "0016", "end": "0028", "http://rdfs.org/ns/void#inDataset.value": "2580"}, "geometry": {"type": "Point", "coordinates": [7.72231, 47.53323], "crs": "4326"}}, {"type": "Feature", "id": "http://leiza-scit.github.io/CAA2026-alligator/XQvL62", "name": "Lorenzberg (ae:XQvL62)", "dateprops": ["end"], "properties": {"http://www.w3.org/2000/01/rdf-schema#label": "Lorenzberg", "http://archaeology.link/ontology#cax": "0.2099", "http://archaeology.link/ontology#cay": "0.065", "http://archaeology.link/ontology#caz": "0.039", "http://archaeology.link/ontology#endfixed": "false", "http://archaeology.link/ontology#estimatedend": "9.0", "http://archaeology.link/ontology#estimatedstart": "-7.0", "http://archaeology.link/ontology#nfen": "Haltern", "http://archaeology.link/ontology#nfsn": "Haltern", "http://archaeology.link/ontology#startfixed": "false", "http://purl.org/dc/elements/1.1/identifier": "XQvL62", "begin": "-0007", "end": "0009", "http://rdfs.org/ns/void#inDataset.value": "2580"}, "geometry": {"type": "Point", "coordinates": [10.90977, 47.90988], "crs": "4326"}}, {"type": "Feature", "id": "http://leiza-scit.github.io/CAA2026-alligator/YwxOzG", "name": "Braives (ae:YwxOzG)", "dateprops": ["end"], "properties": {"http://www.w3.org/2000/01/rdf-schema#label": "Braives", "http://archaeology.link/ontology#cax": "0.186", "http://archaeology.link/ontology#cay": "-0.0421", "http://archaeology.link/ontology#caz": "0.267", "http://archaeology.link/ontology#endfixed": "false", "http://archaeology.link/ontology#estimatedend": "9.0", "http://archaeology.link/ontology#estimatedstart": "-7.0", "http://archaeology.link/ontology#nfen": "Haltern", "http://archaeology.link/ontology#nfsn": "Haltern", "http://archaeology.link/ontology#startfixed": "false", "http://purl.org/dc/elements/1.1/identifier": "YwxOzG", "begin": "-0007", "end": "0009", "http://rdfs.org/ns/void#inDataset.value": "2580"}, "geometry": {"type": "Point", "coordinates": [5.1455, 50.6296], "crs": "4326"}}, {"type": "Feature", "id": "http://leiza-scit.github.io/CAA2026-alligator/NZ5ad2", "name": "Wiesbaden (ae:NZ5ad2)", "dateprops": ["end"], "properties": {"http://www.w3.org/2000/01/rdf-schema#label": "Wiesbaden", "http://archaeology.link/ontology#cax": "0.4593", "http://archaeology.link/ontology#cay": "0.0995", "http://archaeology.link/ontology#caz": "-0.5028", "http://archaeology.link/ontology#endfixed": "false", "http://archaeology.link/ontology#estimatedend": "13.0", "http://archaeology.link/ontology#estimatedstart": "8.0", "http://archaeology.link/ontology#nfen": "Augst, Insula 31", "http://archaeology.link/ontology#nfsn": "Augst, Insula 31", "http://archaeology.link/ontology#osm_tag": "tourism=attraction", "http://archaeology.link/ontology#startfixed": "false", "http://purl.org/dc/elements/1.1/identifier": "NZ5ad2", "begin": "0008", "end": "0013", "http://rdfs.org/ns/void#inDataset.value": "2580"}, "geometry": {"type": "Point", "coordinates": [8.23879, 50.08434], "crs": "4326"}}, {"type": "Feature", "id": "http://leiza-scit.github.io/CAA2026-alligator/xemvlY", "name": "Maastricht (ae:xemvlY)", "dateprops": ["end"], "properties": {"http://www.w3.org/2000/01/rdf-schema#label": "Maastricht", "http://archaeology.link/ontology#cax": "0.8086", "http://archaeology.link/ontology#cay": "-0.2157", "http://archaeology.link/ontology#caz": "0.4184", "http://archaeology.link/ontology#endfixed": "false", "http://archaeology.link/ontology#estimatedend": "28.0", "http://archaeology.link/ontology#estimatedstart": "16.0", "http://archaeology.link/ontology#nfen": "Velsen", "http://archaeology.link/ontology#nfsn": "Velsen", "http://archaeology.link/ontology#osm_tag": "tourism=museum", "http://archaeology.link/ontology#startfixed": "false", "http://purl.org/dc/elements/1.1/identifier": "xemvlY", "begin": "0016", "end": "0028", "http://rdfs.org/ns/void#inDataset.value": "2580"}, "geometry": {"type": "Point", "coordinates": [5.6938, 50.84841], "crs": "4326"}}, {"type": "Feature", "id": "http://leiza-scit.github.io/CAA2026-alligator/PL318Z", "name": "Augst, Theater (ae:PL318Z)", "dateprops": ["end"], "properties": {"http://www.w3.org/2000/01/rdf-schema#label": "Augst, Theater", "http://archaeology.link/ontology#cax": "0.7059", "http://archaeology.link/ontology#cay": "-0.0757", "http://archaeology.link/ontology#caz": "-0.2543", "http://archaeology.link/ontology#endfixed": "false", "http://archaeology.link/ontology#estimatedend": "28.0", "http://archaeology.link/ontology#estimatedstart": "16.0", "http://archaeology.link/ontology#nfen": "Velsen", "http://archaeology.link/ontology#nfsn": "Velsen", "http://archaeology.link/ontology#osm_tag": "historic=archaeological_site", "http://archaeology.link/ontology#startfixed": "false", "http://purl.org/dc/elements/1.1/identifier": "PL318Z", "begin": "0016", "end": "0028", "http://rdfs.org/ns/void#inDataset.value": "2580"}, "geometry": {"type": "Point", "coordinates": [7.72231, 47.53323], "crs": "4326"}}, {"type": "Feature", "id": "http://leiza-scit.github.io/CAA2026-alligator/mEEdOD", "name": "Bad Nauheim (ae:mEEdOD)", "dateprops": ["end"], "properties": {"http://www.w3.org/2000/01/rdf-schema#label": "Bad Nauheim", "http://archaeology.link/ontology#cax": "0.2199", "http://archaeology.link/ontology#cay": "0.034", "http://archaeology.link/ontology#caz": "-0.1879", "http://archaeology.link/ontology#endfixed": "false", "http://archaeology.link/ontology#estimatedend": "9.0", "http://archaeology.link/ontology#estimatedstart": "-7.0", "http://archaeology.link/ontology#nfen": "Haltern", "http://archaeology.link/ontology#nfsn": "Haltern", "http://archaeology.link/ontology#osm_tag": "historic=archaeological_site", "http://archaeology.link/ontology#startfixed": "false", "http://purl.org/dc/elements/1.1/identifier": "mEEdOD", "begin": "-0007", "end": "0009", "http://rdfs.org/ns/void#inDataset.value": "2580"}, "geometry": {"type": "Point", "coordinates": [8.7522, 50.36987], "crs": "4326"}}, {"type": "Feature", "id": "http://leiza-scit.github.io/CAA2026-alligator/LQJ8KW", "name": "Vetera I (ae:LQJ8KW)", "dateprops": ["end"], "properties": {"http://www.w3.org/2000/01/rdf-schema#label": "Vetera I", "http://archaeology.link/ontology#cax": "0.4039", "http://archaeology.link/ontology#cay": "-0.0911", "http://archaeology.link/ontology#caz": "0.218", "http://archaeology.link/ontology#endfixed": "false", "http://archaeology.link/ontology#estimatedend": "9.0", "http://archaeology.link/ontology#estimatedstart": "-7.0", "http://archaeology.link/ontology#nfen": "Haltern", "http://archaeology.link/ontology#nfsn": "Haltern", "http://archaeology.link/ontology#startfixed": "false", "http://purl.org/dc/elements/1.1/identifier": "LQJ8KW", "begin": "-0007", "end": "0009", "http://rdfs.org/ns/void#inDataset.value": "2580"}, "geometry": {"type": "Point", "coordinates": [6.46999, 51.64639], "crs": "4326"}}, {"type": "Feature", "id": "http://leiza-scit.github.io/CAA2026-alligator/yn0Jk4", "name": "Oberaden (ae:yn0Jk4)", "dateprops": ["end"], "properties": {"http://www.w3.org/2000/01/rdf-schema#label": "Oberaden", "http://archaeology.link/ontology#cax": "-0.6965", "http://archaeology.link/ontology#cay": "0.2155", "http://archaeology.link/ontology#caz": "0.4023", "http://archaeology.link/ontology#endfixed": "true", "http://archaeology.link/ontology#estimatedend": "-7.0", "http://archaeology.link/ontology#estimatedstart": "-11.0", "http://archaeology.link/ontology#osm_tag": "historic=archaeological_site", "http://archaeology.link/ontology#startfixed": "true", "http://purl.org/dc/elements/1.1/identifier": "yn0Jk4", "begin": "-0011", "end": "-0007", "http://rdfs.org/ns/void#inDataset.value": "2580"}, "geometry": {"type": "Point", "coordinates": [7.58444, 51.6125], "crs": "4326"}}, {"type": "Feature", "id": "http://leiza-scit.github.io/CAA2026-alligator/jJ6lz4", "name": "Z\u00fcrich, Lindenhof (ae:jJ6lz4)", "dateprops": ["end"], "properties": {"http://www.w3.org/2000/01/rdf-schema#label": "Z\u00fcrich, Lindenhof", "http://archaeology.link/ontology#cax": "-1.5681", "http://archaeology.link/ontology#cay": "-3.3957", "http://archaeology.link/ontology#caz": "-0.2093", "http://archaeology.link/ontology#endfixed": "false", "http://archaeology.link/ontology#estimatedend": "-9.0", "http://archaeology.link/ontology#estimatedstart": "-16.0", "http://archaeology.link/ontology#nfen": "Dangstetten", "http://archaeology.link/ontology#nfsn": "Neuss", "http://archaeology.link/ontology#osm_tag": "historic=archaeological_site", "http://archaeology.link/ontology#startfixed": "false", "http://purl.org/dc/elements/1.1/identifier": "jJ6lz4", "begin": "-0016", "end": "-0009", "http://rdfs.org/ns/void#inDataset.value": "2580"}, "geometry": {"type": "Point", "coordinates": [8.540724, 47.373008], "crs": "4326"}}, {"type": "Feature", "id": "http://leiza-scit.github.io/CAA2026-alligator/w6L6NR", "name": "Friedberg (ae:w6L6NR)", "dateprops": ["end"], "properties": {"http://www.w3.org/2000/01/rdf-schema#label": "Friedberg", "http://archaeology.link/ontology#cax": "0.4748", "http://archaeology.link/ontology#cay": "0.0596", "http://archaeology.link/ontology#caz": "-0.3632", "http://archaeology.link/ontology#endfixed": "false", "http://archaeology.link/ontology#estimatedend": "13.0", "http://archaeology.link/ontology#estimatedstart": "8.0", "http://archaeology.link/ontology#nfen": "Augst, Insula 31", "http://archaeology.link/ontology#nfsn": "Augst, Insula 31", "http://archaeology.link/ontology#osm_tag": "place=hamlet", "http://archaeology.link/ontology#startfixed": "false", "http://purl.org/dc/elements/1.1/identifier": "w6L6NR", "begin": "0008", "end": "0013", "http://rdfs.org/ns/void#inDataset.value": "2580"}, "geometry": {"type": "Point", "coordinates": [8.7535, 50.34167], "crs": "4326"}}, {"type": "Feature", "id": "http://leiza-scit.github.io/CAA2026-alligator/Lk4zlN", "name": "Bonn, Boeselagerhof (ae:Lk4zlN)", "dateprops": ["end"], "properties": {"http://www.w3.org/2000/01/rdf-schema#label": "Bonn, Boeselagerhof", "http://archaeology.link/ontology#cax": "-0.007", "http://archaeology.link/ontology#cay": "0.0597", "http://archaeology.link/ontology#caz": "-0.1639", "http://archaeology.link/ontology#endfixed": "false", "http://archaeology.link/ontology#estimatedend": "9.0", "http://archaeology.link/ontology#estimatedstart": "-7.0", "http://archaeology.link/ontology#nfen": "Haltern", "http://archaeology.link/ontology#nfsn": "Haltern", "http://archaeology.link/ontology#osm_tag": "information=tactile_model", "http://archaeology.link/ontology#startfixed": "false", "http://purl.org/dc/elements/1.1/identifier": "Lk4zlN", "begin": "-0007", "end": "0009", "http://rdfs.org/ns/void#inDataset.value": "2580"}, "geometry": {"type": "Point", "coordinates": [7.09938, 50.7448], "crs": "4326"}}, {"type": "Feature", "id": "http://leiza-scit.github.io/CAA2026-alligator/YoMv81", "name": "Vindonissa, K\u00f6nigsfelden (ae:YoMv81)", "dateprops": ["end"], "properties": {"http://www.w3.org/2000/01/rdf-schema#label": "Vindonissa, K\u00f6nigsfelden", "http://archaeology.link/ontology#cax": "0.3832", "http://archaeology.link/ontology#cay": "0.2064", "http://archaeology.link/ontology#caz": "-1.0289", "http://archaeology.link/ontology#endfixed": "false", "http://archaeology.link/ontology#estimatedend": "13.0", "http://archaeology.link/ontology#estimatedstart": "8.0", "http://archaeology.link/ontology#nfen": "Augst, Insula 31", "http://archaeology.link/ontology#nfsn": "Augst, Insula 31", "http://archaeology.link/ontology#osm_tag": "historic=castle", "http://archaeology.link/ontology#startfixed": "false", "http://purl.org/dc/elements/1.1/identifier": "YoMv81", "begin": "0008", "end": "0013", "http://rdfs.org/ns/void#inDataset.value": "2580"}, "geometry": {"type": "Point", "coordinates": [8.233333, 47.46667], "crs": "4326"}}, {"type": "Feature", "id": "http://leiza-scit.github.io/CAA2026-alligator/jNevOz", "name": "Worms (ae:jNevOz)", "dateprops": ["end"], "properties": {"http://www.w3.org/2000/01/rdf-schema#label": "Worms", "http://archaeology.link/ontology#cax": "-0.5313", "http://archaeology.link/ontology#cay": "0.4841", "http://archaeology.link/ontology#caz": "-0.5543", "http://archaeology.link/ontology#endfixed": "false", "http://archaeology.link/ontology#estimatedend": "13.0", "http://archaeology.link/ontology#estimatedstart": "-16.0", "http://archaeology.link/ontology#nfen": "Augst, Insula 31", "http://archaeology.link/ontology#nfsn": "Neuss", "http://archaeology.link/ontology#startfixed": "false", "http://purl.org/dc/elements/1.1/identifier": "jNevOz", "begin": "-0016", "end": "0013", "http://rdfs.org/ns/void#inDataset.value": "2580"}, "geometry": {"type": "Point", "coordinates": [8.35978, 49.63007], "crs": "4326"}}, {"type": "Feature", "id": "http://leiza-scit.github.io/CAA2026-alligator/NyGMBY", "name": "Bregenz (ae:NyGMBY)", "dateprops": ["end"], "properties": {"http://www.w3.org/2000/01/rdf-schema#label": "Bregenz", "http://archaeology.link/ontology#cax": "0.3196", "http://archaeology.link/ontology#cay": "0.1604", "http://archaeology.link/ontology#caz": "-0.7664", "http://archaeology.link/ontology#endfixed": "false", "http://archaeology.link/ontology#estimatedend": "13.0", "http://archaeology.link/ontology#estimatedstart": "8.0", "http://archaeology.link/ontology#nfen": "Augst, Insula 31", "http://archaeology.link/ontology#nfsn": "Augst, Insula 31", "http://archaeology.link/ontology#startfixed": "false", "http://purl.org/dc/elements/1.1/identifier": "NyGMBY", "begin": "0008", "end": "0013", "http://rdfs.org/ns/void#inDataset.value": "2580"}, "geometry": {"type": "Point", "coordinates": [9.74073, 47.4979], "crs": "4326"}}, {"type": "Feature", "id": "http://leiza-scit.github.io/CAA2026-alligator/qWYJOl", "name": "Asberg, Lagerdorf (ae:qWYJOl)", "dateprops": ["end"], "properties": {"http://www.w3.org/2000/01/rdf-schema#label": "Asberg, Lagerdorf", "http://archaeology.link/ontology#cax": "0.2042", "http://archaeology.link/ontology#cay": "0.0864", "http://archaeology.link/ontology#caz": "-0.0158", "http://archaeology.link/ontology#endfixed": "false", "http://archaeology.link/ontology#estimatedend": "9.0", "http://archaeology.link/ontology#estimatedstart": "-7.0", "http://archaeology.link/ontology#nfen": "Haltern", "http://archaeology.link/ontology#nfsn": "Haltern", "http://archaeology.link/ontology#startfixed": "false", "http://purl.org/dc/elements/1.1/identifier": "qWYJOl", "begin": "-0007", "end": "0009", "http://rdfs.org/ns/void#inDataset.value": "2580"}, "geometry": {"type": "Point", "coordinates": [6.67, 51.43167], "crs": "4326"}}, {"type": "Feature", "id": "http://leiza-scit.github.io/CAA2026-alligator/awbGWR", "name": "Dangstetten (ae:awbGWR)", "dateprops": ["end"], "properties": {"http://www.w3.org/2000/01/rdf-schema#label": "Dangstetten", "http://archaeology.link/ontology#cax": "-1.0624", "http://archaeology.link/ontology#cay": "0.2223", "http://archaeology.link/ontology#caz": "0.5173", "http://archaeology.link/ontology#endfixed": "true", "http://archaeology.link/ontology#estimatedend": "-9.0", "http://archaeology.link/ontology#estimatedstart": "-15.0", "http://archaeology.link/ontology#osm_tag": "landuse=quarry", "http://archaeology.link/ontology#startfixed": "true", "http://purl.org/dc/elements/1.1/identifier": "awbGWR", "begin": "-0015", "end": "-0009", "http://rdfs.org/ns/void#inDataset.value": "2580"}, "geometry": {"type": "Point", "coordinates": [8.31083, 47.58889], "crs": "4326"}}, {"type": "Feature", "id": "http://leiza-scit.github.io/CAA2026-alligator/site_Trier-Petrisberg", "name": "Trier-Petrisberg (ae:site_Trier-Petrisberg)", "dateprops": [], "properties": {"http://www.w3.org/2000/01/rdf-schema#label": "Trier-Petrisberg", "http://archaeology.link/ontology#osm_tag": "historic=archaeological_site", "http://rdfs.org/ns/void#inDataset.value": "2580", "end": ""}, "geometry": {"type": "Point", "coordinates": [6.664117, 49.752021], "crs": "4326"}}, {"type": "Feature", "id": "http://leiza-scit.github.io/CAA2026-alligator/Zn4QP2", "name": "Nijmegen, Lager (Haalebos) (ae:Zn4QP2)", "dateprops": ["end"], "properties": {"http://www.w3.org/2000/01/rdf-schema#label": "Nijmegen, Lager (Haalebos)", "http://archaeology.link/ontology#cax": "-1.9696", "http://archaeology.link/ontology#cay": "-4.3352", "http://archaeology.link/ontology#caz": "-0.6857", "http://archaeology.link/ontology#endfixed": "false", "http://archaeology.link/ontology#estimatedend": "-9.0", "http://archaeology.link/ontology#estimatedstart": "-16.0", "http://archaeology.link/ontology#nfen": "Dangstetten", "http://archaeology.link/ontology#nfsn": "Neuss", "http://archaeology.link/ontology#startfixed": "false", "http://purl.org/dc/elements/1.1/identifier": "Zn4QP2", "begin": "-0016", "end": "-0009", "http://rdfs.org/ns/void#inDataset.value": "2580"}, "geometry": {"type": "Point", "coordinates": [5.884209, 51.839831], "crs": "4326"}}, {"type": "Feature", "id": "http://leiza-scit.github.io/CAA2026-alligator/nW7M9E", "name": "Oberwinterthur, R\u00f6merstr. 186 (ae:nW7M9E)", "dateprops": ["end"], "properties": {"http://www.w3.org/2000/01/rdf-schema#label": "Oberwinterthur, R\u00f6merstr. 186", "http://archaeology.link/ontology#cax": "0.479", "http://archaeology.link/ontology#cay": "0.0493", "http://archaeology.link/ontology#caz": "-0.5557", "http://archaeology.link/ontology#endfixed": "false", "http://archaeology.link/ontology#estimatedend": "13.0", "http://archaeology.link/ontology#estimatedstart": "8.0", "http://archaeology.link/ontology#nfen": "Augst, Insula 31", "http://archaeology.link/ontology#nfsn": "Augst, Insula 31", "http://archaeology.link/ontology#osm_tag": "building=appartments", "http://archaeology.link/ontology#startfixed": "false", "http://purl.org/dc/elements/1.1/identifier": "nW7M9E", "begin": "0008", "end": "0013", "http://rdfs.org/ns/void#inDataset.value": "2580"}, "geometry": {"type": "Point", "coordinates": [8.73756, 47.49726], "crs": "4326"}}, {"type": "Feature", "id": "http://leiza-scit.github.io/CAA2026-alligator/p1J56k", "name": "Velsen (ae:p1J56k)", "dateprops": ["end"], "properties": {"http://www.w3.org/2000/01/rdf-schema#label": "Velsen", "http://archaeology.link/ontology#cax": "0.8336", "http://archaeology.link/ontology#cay": "-0.1823", "http://archaeology.link/ontology#caz": "0.0086", "http://archaeology.link/ontology#endfixed": "true", "http://archaeology.link/ontology#estimatedend": "28.0", "http://archaeology.link/ontology#estimatedstart": "16.0", "http://archaeology.link/ontology#osm_tag": "natural=water", "http://archaeology.link/ontology#startfixed": "true", "http://purl.org/dc/elements/1.1/identifier": "p1J56k", "begin": "0016", "end": "0028", "http://rdfs.org/ns/void#inDataset.value": "2580"}, "geometry": {"type": "Point", "coordinates": [4.66829, 52.45207], "crs": "4326"}}, {"type": "Feature", "id": "http://leiza-scit.github.io/CAA2026-alligator/Bv9ve6", "name": "Nijmegen, Lager (Brunsting) (ae:Bv9ve6)", "dateprops": ["end"], "properties": {"http://www.w3.org/2000/01/rdf-schema#label": "Nijmegen, Lager (Brunsting)", "http://archaeology.link/ontology#cax": "0.3731", "http://archaeology.link/ontology#cay": "-0.0656", "http://archaeology.link/ontology#caz": "-0.2295", "http://archaeology.link/ontology#endfixed": "false", "http://archaeology.link/ontology#estimatedend": "9.0", "http://archaeology.link/ontology#estimatedstart": "-7.0", "http://archaeology.link/ontology#nfen": "Haltern", "http://archaeology.link/ontology#nfsn": "Haltern", "http://archaeology.link/ontology#startfixed": "false", "http://purl.org/dc/elements/1.1/identifier": "Bv9ve6", "begin": "-0007", "end": "0009", "http://rdfs.org/ns/void#inDataset.value": "2580"}, "geometry": {"type": "Point", "coordinates": [5.884209, 51.839831], "crs": "4326"}}, {"type": "Feature", "id": "http://leiza-scit.github.io/CAA2026-alligator/RQEKGv", "name": "Lausanne-Vidy (ae:RQEKGv)", "dateprops": ["end"], "properties": {"http://www.w3.org/2000/01/rdf-schema#label": "Lausanne-Vidy", "http://archaeology.link/ontology#cax": "-0.2726", "http://archaeology.link/ontology#cay": "-0.0157", "http://archaeology.link/ontology#caz": "-0.1228", "http://archaeology.link/ontology#endfixed": "false", "http://archaeology.link/ontology#estimatedend": "9.0", "http://archaeology.link/ontology#estimatedstart": "-16.0", "http://archaeology.link/ontology#nfen": "Haltern", "http://archaeology.link/ontology#nfsn": "Neuss", "http://archaeology.link/ontology#osm_tag": "historic=archaeological_site", "http://archaeology.link/ontology#startfixed": "false", "http://purl.org/dc/elements/1.1/identifier": "RQEKGv", "begin": "-0016", "end": "0009", "http://rdfs.org/ns/void#inDataset.value": "2580"}, "geometry": {"type": "Point", "coordinates": [6.60087, 46.51651], "crs": "4326"}}, {"type": "Feature", "id": "http://leiza-scit.github.io/CAA2026-alligator/wp8pRM", "name": "Nijmegen, Trajanusplein (ae:wp8pRM)", "dateprops": ["end"], "properties": {"http://www.w3.org/2000/01/rdf-schema#label": "Nijmegen, Trajanusplein", "http://archaeology.link/ontology#cax": "0.4147", "http://archaeology.link/ontology#cay": "0.0385", "http://archaeology.link/ontology#caz": "-0.4235", "http://archaeology.link/ontology#endfixed": "false", "http://archaeology.link/ontology#estimatedend": "13.0", "http://archaeology.link/ontology#estimatedstart": "8.0", "http://archaeology.link/ontology#nfen": "Augst, Insula 31", "http://archaeology.link/ontology#nfsn": "Augst, Insula 31", "http://archaeology.link/ontology#startfixed": "false", "http://purl.org/dc/elements/1.1/identifier": "wp8pRM", "begin": "0008", "end": "0013", "http://rdfs.org/ns/void#inDataset.value": "2580"}, "geometry": {"type": "Point", "coordinates": [5.884209, 51.839831], "crs": "4326"}}, {"type": "Feature", "id": "http://leiza-scit.github.io/CAA2026-alligator/d9DzW6", "name": "Basel, Lagerdorf (ae:d9DzW6)", "dateprops": ["end"], "properties": {"http://www.w3.org/2000/01/rdf-schema#label": "Basel, Lagerdorf", "http://archaeology.link/ontology#cax": "-0.1599", "http://archaeology.link/ontology#cay": "0.0932", "http://archaeology.link/ontology#caz": "-0.0583", "http://archaeology.link/ontology#endfixed": "false", "http://archaeology.link/ontology#estimatedend": "9.0", "http://archaeology.link/ontology#estimatedstart": "-16.0", "http://archaeology.link/ontology#nfen": "Haltern", "http://archaeology.link/ontology#nfsn": "Neuss", "http://archaeology.link/ontology#osm_tag": "historic=archaeological_site", "http://archaeology.link/ontology#startfixed": "false", "http://purl.org/dc/elements/1.1/identifier": "d9DzW6", "begin": "-0016", "end": "0009", "http://rdfs.org/ns/void#inDataset.value": "2580"}, "geometry": {"type": "Point", "coordinates": [7.593, 47.5557], "crs": "4326"}}, {"type": "Feature", "id": "http://leiza-scit.github.io/CAA2026-alligator/Pg0gRj", "name": "Haltern (ae:Pg0gRj)", "dateprops": ["end"], "properties": {"http://www.w3.org/2000/01/rdf-schema#label": "Haltern", "http://archaeology.link/ontology#cax": "0.1314", "http://archaeology.link/ontology#cay": "0.1361", "http://archaeology.link/ontology#caz": "-0.1036", "http://archaeology.link/ontology#endfixed": "true", "http://archaeology.link/ontology#estimatedend": "9.0", "http://archaeology.link/ontology#estimatedstart": "-7.0", "http://archaeology.link/ontology#osm_tag": "historic=archaeological_site", "http://archaeology.link/ontology#startfixed": "true", "http://purl.org/dc/elements/1.1/identifier": "Pg0gRj", "begin": "-0007", "end": "0009", "http://rdfs.org/ns/void#inDataset.value": "2580"}, "geometry": {"type": "Point", "coordinates": [7.17052, 51.73947], "crs": "4326"}}, {"type": "Feature", "id": "http://leiza-scit.github.io/CAA2026-alligator/XWnJMo", "name": "Avenches, Insula 15 (ae:XWnJMo)", "dateprops": ["end"], "properties": {"http://www.w3.org/2000/01/rdf-schema#label": "Avenches, Insula 15", "http://archaeology.link/ontology#cax": "0.3853", "http://archaeology.link/ontology#cay": "-0.0153", "http://archaeology.link/ontology#caz": "-0.3444", "http://archaeology.link/ontology#endfixed": "false", "http://archaeology.link/ontology#estimatedend": "13.0", "http://archaeology.link/ontology#estimatedstart": "8.0", "http://archaeology.link/ontology#nfen": "Augst, Insula 31", "http://archaeology.link/ontology#nfsn": "Augst, Insula 31", "http://archaeology.link/ontology#osm_tag": "building=yes", "http://archaeology.link/ontology#startfixed": "false", "http://purl.org/dc/elements/1.1/identifier": "XWnJMo", "begin": "0008", "end": "0013", "http://rdfs.org/ns/void#inDataset.value": "2580"}, "geometry": {"type": "Point", "coordinates": [7.04067, 46.88028], "crs": "4326"}}, {"type": "Feature", "id": "http://leiza-scit.github.io/CAA2026-alligator/ZePQ23", "name": "Mainz, Legionslager (ae:ZePQ23)", "dateprops": ["end"], "properties": {"http://www.w3.org/2000/01/rdf-schema#label": "Mainz, Legionslager", "http://archaeology.link/ontology#cax": "0.0331", "http://archaeology.link/ontology#cay": "0.0481", "http://archaeology.link/ontology#caz": "0.2022", "http://archaeology.link/ontology#endfixed": "false", "http://archaeology.link/ontology#estimatedend": "9.0", "http://archaeology.link/ontology#estimatedstart": "-7.0", "http://archaeology.link/ontology#nfen": "Haltern", "http://archaeology.link/ontology#nfsn": "Haltern", "http://archaeology.link/ontology#osm_tag": "historic=archaeological_site", "http://archaeology.link/ontology#startfixed": "false", "http://purl.org/dc/elements/1.1/identifier": "ZePQ23", "begin": "-0007", "end": "0009", "http://rdfs.org/ns/void#inDataset.value": "2580"}, "geometry": {"type": "Point", "coordinates": [8.27387, 49.99891], "crs": "4326"}}, {"type": "Feature", "id": "http://leiza-scit.github.io/CAA2026-alligator/gvMxX2", "name": "Vindonissa, Milit\u00e4rstation (ae:gvMxX2)", "dateprops": ["end"], "properties": {"http://www.w3.org/2000/01/rdf-schema#label": "Vindonissa, Milit\u00e4rstation", "http://archaeology.link/ontology#cax": "-0.6857", "http://archaeology.link/ontology#cay": "-0.2012", "http://archaeology.link/ontology#caz": "0.1651", "http://archaeology.link/ontology#endfixed": "false", "http://archaeology.link/ontology#estimatedend": "8.0", "http://archaeology.link/ontology#estimatedstart": "-16.0", "http://archaeology.link/ontology#nfen": "R\u00f6dgen", "http://archaeology.link/ontology#nfsn": "Neuss", "http://archaeology.link/ontology#osm_tag": "historic=castle", "http://archaeology.link/ontology#startfixed": "false", "http://purl.org/dc/elements/1.1/identifier": "gvMxX2", "begin": "-0016", "end": "0008", "http://rdfs.org/ns/void#inDataset.value": "2580"}, "geometry": {"type": "Point", "coordinates": [8.233333, 47.46667], "crs": "4326"}}, {"type": "Feature", "id": "http://leiza-scit.github.io/CAA2026-alligator/wv7W8K", "name": "Vindonissa, Scheuerhof (ae:wv7W8K)", "dateprops": ["end"], "properties": {"http://www.w3.org/2000/01/rdf-schema#label": "Vindonissa, Scheuerhof", "http://archaeology.link/ontology#cax": "0.137", "http://archaeology.link/ontology#cay": "0.1014", "http://archaeology.link/ontology#caz": "0.0032", "http://archaeology.link/ontology#endfixed": "false", "http://archaeology.link/ontology#estimatedend": "9.0", "http://archaeology.link/ontology#estimatedstart": "-7.0", "http://archaeology.link/ontology#nfen": "Haltern", "http://archaeology.link/ontology#nfsn": "Haltern", "http://archaeology.link/ontology#osm_tag": "historic=castle", "http://archaeology.link/ontology#startfixed": "false", "http://purl.org/dc/elements/1.1/identifier": "wv7W8K", "begin": "-0007", "end": "0009", "http://rdfs.org/ns/void#inDataset.value": "2580"}, "geometry": {"type": "Point", "coordinates": [8.233333, 47.46667], "crs": "4326"}}, {"type": "Feature", "id": "http://leiza-scit.github.io/CAA2026-alligator/V9km9R", "name": "Asberg, Lager (ae:V9km9R)", "dateprops": ["end"], "properties": {"http://www.w3.org/2000/01/rdf-schema#label": "Asberg, Lager", "http://archaeology.link/ontology#cax": "-0.323", "http://archaeology.link/ontology#cay": "0.1081", "http://archaeology.link/ontology#caz": "0.1243", "http://archaeology.link/ontology#endfixed": "false", "http://archaeology.link/ontology#estimatedend": "8.0", "http://archaeology.link/ontology#estimatedstart": "-16.0", "http://archaeology.link/ontology#nfen": "R\u00f6dgen", "http://archaeology.link/ontology#nfsn": "Neuss", "http://archaeology.link/ontology#osm_tag": "natural=scrub", "http://archaeology.link/ontology#startfixed": "false", "http://purl.org/dc/elements/1.1/identifier": "V9km9R", "begin": "-0016", "end": "0008", "http://rdfs.org/ns/void#inDataset.value": "2580"}, "geometry": {"type": "Point", "coordinates": [6.67, 51.43167], "crs": "4326"}}, {"type": "Feature", "id": "http://leiza-scit.github.io/CAA2026-alligator/ekMlNm", "name": "Namur (ae:ekMlNm)", "dateprops": ["end"], "properties": {"http://www.w3.org/2000/01/rdf-schema#label": "Namur", "http://archaeology.link/ontology#cax": "-0.1435", "http://archaeology.link/ontology#cay": "0.2008", "http://archaeology.link/ontology#caz": "0.3545", "http://archaeology.link/ontology#endfixed": "false", "http://archaeology.link/ontology#estimatedend": "8.0", "http://archaeology.link/ontology#estimatedstart": "-12.0", "http://archaeology.link/ontology#nfen": "R\u00f6dgen", "http://archaeology.link/ontology#nfsn": "R\u00f6dgen", "http://archaeology.link/ontology#startfixed": "false", "http://purl.org/dc/elements/1.1/identifier": "ekMlNm", "begin": "-0012", "end": "0008", "http://rdfs.org/ns/void#inDataset.value": "2580"}, "geometry": {"type": "Point", "coordinates": [4.86063, 50.45949], "crs": "4326"}}, {"type": "Feature", "id": "http://leiza-scit.github.io/CAA2026-alligator/KRDgw7", "name": "Tongeren (ae:KRDgw7)", "dateprops": ["end"], "properties": {"http://www.w3.org/2000/01/rdf-schema#label": "Tongeren", "http://archaeology.link/ontology#cax": "0.063", "http://archaeology.link/ontology#cay": "0.0097", "http://archaeology.link/ontology#caz": "0.1545", "http://archaeology.link/ontology#endfixed": "false", "http://archaeology.link/ontology#estimatedend": "9.0", "http://archaeology.link/ontology#estimatedstart": "-7.0", "http://archaeology.link/ontology#nfen": "Haltern", "http://archaeology.link/ontology#nfsn": "Haltern", "http://archaeology.link/ontology#osm_tag": "historic=archaeological_site", "http://archaeology.link/ontology#startfixed": "false", "http://purl.org/dc/elements/1.1/identifier": "KRDgw7", "begin": "-0007", "end": "0009", "http://rdfs.org/ns/void#inDataset.value": "2580"}, "geometry": {"type": "Point", "coordinates": [5.46486, 50.78096], "crs": "4326"}}, {"type": "Feature", "id": "http://leiza-scit.github.io/CAA2026-alligator/bedBjy", "name": "Titelberg (ae:bedBjy)", "dateprops": ["end"], "properties": {"http://www.w3.org/2000/01/rdf-schema#label": "Titelberg", "http://archaeology.link/ontology#cax": "-1.2119", "http://archaeology.link/ontology#cay": "-0.3813", "http://archaeology.link/ontology#caz": "-0.0643", "http://archaeology.link/ontology#endfixed": "false", "http://archaeology.link/ontology#estimatedend": "-9.0", "http://archaeology.link/ontology#estimatedstart": "-15.0", "http://archaeology.link/ontology#nfen": "Dangstetten", "http://archaeology.link/ontology#nfsn": "Dangstetten", "http://archaeology.link/ontology#osm_tag": "historic=archaeological_site", "http://archaeology.link/ontology#startfixed": "false", "http://purl.org/dc/elements/1.1/identifier": "bedBjy", "begin": "-0015", "end": "-0009", "http://rdfs.org/ns/void#inDataset.value": "2580"}, "geometry": {"type": "Point", "coordinates": [5.85972, 49.54028], "crs": "4326"}}, {"type": "Feature", "id": "http://leiza-scit.github.io/CAA2026-alligator/Ga28Wv", "name": "Nijmegen, Valkhof (ae:Ga28Wv)", "dateprops": ["end"], "properties": {"http://www.w3.org/2000/01/rdf-schema#label": "Nijmegen, Valkhof", "http://archaeology.link/ontology#cax": "0.2432", "http://archaeology.link/ontology#cay": "0.1211", "http://archaeology.link/ontology#caz": "-0.268", "http://archaeology.link/ontology#endfixed": "false", "http://archaeology.link/ontology#estimatedend": "13.0", "http://archaeology.link/ontology#estimatedstart": "8.0", "http://archaeology.link/ontology#nfen": "Augst, Insula 31", "http://archaeology.link/ontology#nfsn": "Augst, Insula 31", "http://archaeology.link/ontology#osm_tag": "tourism=museum", "http://archaeology.link/ontology#startfixed": "false", "http://purl.org/dc/elements/1.1/identifier": "Ga28Wv", "begin": "0008", "end": "0013", "http://rdfs.org/ns/void#inDataset.value": "2580"}, "geometry": {"type": "Point", "coordinates": [5.884209, 51.839831], "crs": "4326"}}, {"type": "Feature", "id": "http://leiza-scit.github.io/CAA2026-alligator/grxE53", "name": "R\u00f6dgen (ae:grxE53)", "dateprops": ["end"], "properties": {"http://www.w3.org/2000/01/rdf-schema#label": "R\u00f6dgen", "http://archaeology.link/ontology#cax": "-0.4825", "http://archaeology.link/ontology#cay": "0.1896", "http://archaeology.link/ontology#caz": "0.2972", "http://archaeology.link/ontology#endfixed": "true", "http://archaeology.link/ontology#estimatedend": "8.0", "http://archaeology.link/ontology#estimatedstart": "-12.0", "http://archaeology.link/ontology#osm_tag": "tourism=information", "http://archaeology.link/ontology#startfixed": "true", "http://purl.org/dc/elements/1.1/identifier": "grxE53", "begin": "-0012", "end": "0008", "http://rdfs.org/ns/void#inDataset.value": "2580"}, "geometry": {"type": "Point", "coordinates": [8.7665, 50.371], "crs": "4326"}}, {"type": "Feature", "id": "http://leiza-scit.github.io/CAA2026-alligator/KzyPW3", "name": "Liberchies (ae:KzyPW3)", "dateprops": ["end"], "properties": {"http://www.w3.org/2000/01/rdf-schema#label": "Liberchies", "http://archaeology.link/ontology#cax": "-0.3057", "http://archaeology.link/ontology#cay": "-0.0244", "http://archaeology.link/ontology#caz": "-0.0504", "http://archaeology.link/ontology#endfixed": "false", "http://archaeology.link/ontology#estimatedend": "8.0", "http://archaeology.link/ontology#estimatedstart": "-16.0", "http://archaeology.link/ontology#nfen": "R\u00f6dgen", "http://archaeology.link/ontology#nfsn": "Neuss", "http://archaeology.link/ontology#startfixed": "false", "http://purl.org/dc/elements/1.1/identifier": "KzyPW3", "begin": "-0016", "end": "0008", "http://rdfs.org/ns/void#inDataset.value": "2580"}, "geometry": {"type": "Point", "coordinates": [4.44349, 50.51455], "crs": "4326"}}, {"type": "Feature", "id": "http://leiza-scit.github.io/CAA2026-alligator/yaWJxV", "name": "Augsburg, Stadt (ae:yaWJxV)", "dateprops": ["end"], "properties": {"http://www.w3.org/2000/01/rdf-schema#label": "Augsburg, Stadt", "http://archaeology.link/ontology#cax": "0.5881", "http://archaeology.link/ontology#cay": "0.0313", "http://archaeology.link/ontology#caz": "-0.5718", "http://archaeology.link/ontology#endfixed": "false", "http://archaeology.link/ontology#estimatedend": "13.0", "http://archaeology.link/ontology#estimatedstart": "8.0", "http://archaeology.link/ontology#nfen": "Augst, Insula 31", "http://archaeology.link/ontology#nfsn": "Augst, Insula 31", "http://archaeology.link/ontology#startfixed": "false", "http://purl.org/dc/elements/1.1/identifier": "yaWJxV", "begin": "0008", "end": "0013", "http://rdfs.org/ns/void#inDataset.value": "2580"}, "geometry": {"type": "Point", "coordinates": [10.89655, 48.37277], "crs": "4326"}}, {"type": "Feature", "id": "http://leiza-scit.github.io/CAA2026-alligator/EZvPV7", "name": "Augst, Insula 31 (ae:EZvPV7)", "dateprops": ["end"], "properties": {"http://www.w3.org/2000/01/rdf-schema#label": "Augst, Insula 31", "http://archaeology.link/ontology#cax": "0.0998", "http://archaeology.link/ontology#cay": "0.1164", "http://archaeology.link/ontology#caz": "-0.3233", "http://archaeology.link/ontology#endfixed": "true", "http://archaeology.link/ontology#estimatedend": "13.0", "http://archaeology.link/ontology#estimatedstart": "8.0", "http://archaeology.link/ontology#osm_tag": "building=yes", "http://archaeology.link/ontology#startfixed": "true", "http://purl.org/dc/elements/1.1/identifier": "EZvPV7", "begin": "0008", "end": "0013", "http://rdfs.org/ns/void#inDataset.value": "2580"}, "geometry": {"type": "Point", "coordinates": [7.72231, 47.53323], "crs": "4326"}}], "numberMatched": 45, "numberReturned": 45, "bbox": [-8.49341, 40.09905, 10.90977, 52.45207], "crs": "http://www.opengis.net/def/crs/EPSG/0/4326"}