{"type": "FeatureCollection", "id": "http://leiza-scit.github.io/CAA2026-alligator/ArchaeologicalSite_collection", "name": "ArchaeologicalSite Instances Collection", "features": [{"type": "Feature", "id": "http://leiza-scit.github.io/CAA2026-alligator/Lb2pZM", "name": "Liberchies (ae:Lb2pZM)", "dateprops": ["end"], "properties": {"http://www.w3.org/2000/01/rdf-schema#label": "Liberchies", "http://archaeology.link/ontology#cax": "-0.3057", "http://archaeology.link/ontology#cay": "-0.0244", "http://archaeology.link/ontology#caz": "-0.0504", "http://archaeology.link/ontology#endfixed": "false", "http://archaeology.link/ontology#estimatedend": "8.0", "http://archaeology.link/ontology#estimatedstart": "-15.0", "http://archaeology.link/ontology#nfen": "R\u00f6dgen", "http://archaeology.link/ontology#nfsn": "Neuss", "http://archaeology.link/ontology#startfixed": "false", "http://purl.org/dc/elements/1.1/identifier": "Lb2pZM", "begin": "-0015", "end": "0008", "http://rdfs.org/ns/void#inDataset.value": "2539"}, "geometry": {"type": "Point", "coordinates": [4.44349, 50.51455], "crs": "4326"}}, {"type": "Feature", "id": "http://leiza-scit.github.io/CAA2026-alligator/Q5qW8B", "name": "Vindonissa, K\u00f6nigsfelden (ae:Q5qW8B)", "dateprops": ["end"], "properties": {"http://www.w3.org/2000/01/rdf-schema#label": "Vindonissa, K\u00f6nigsfelden", "http://archaeology.link/ontology#cax": "0.3832", "http://archaeology.link/ontology#cay": "0.2064", "http://archaeology.link/ontology#caz": "-1.0289", "http://archaeology.link/ontology#endfixed": "false", "http://archaeology.link/ontology#estimatedend": "13.0", "http://archaeology.link/ontology#estimatedstart": "8.0", "http://archaeology.link/ontology#nfen": "Augst, Insula 31", "http://archaeology.link/ontology#nfsn": "Augst, Insula 31", "http://archaeology.link/ontology#osm_tag": "historic=castle", "http://archaeology.link/ontology#startfixed": "false", "http://purl.org/dc/elements/1.1/identifier": "Q5qW8B", "begin": "0008", "end": "0013", "http://rdfs.org/ns/void#inDataset.value": "2539"}, "geometry": {"type": "Point", "coordinates": [8.233333, 47.46667], "crs": "4326"}}, {"type": "Feature", "id": "http://leiza-scit.github.io/CAA2026-alligator/Dn8Bn0", "name": "Vindonissa, Milit\u00e4rstation (ae:Dn8Bn0)", "dateprops": ["end"], "properties": {"http://www.w3.org/2000/01/rdf-schema#label": "Vindonissa, Milit\u00e4rstation", "http://archaeology.link/ontology#cax": "-0.6857", "http://archaeology.link/ontology#cay": "-0.2012", "http://archaeology.link/ontology#caz": "0.1651", "http://archaeology.link/ontology#endfixed": "false", "http://archaeology.link/ontology#estimatedend": "8.0", "http://archaeology.link/ontology#estimatedstart": "-15.0", "http://archaeology.link/ontology#nfen": "R\u00f6dgen", "http://archaeology.link/ontology#nfsn": "Neuss", "http://archaeology.link/ontology#osm_tag": "historic=castle", "http://archaeology.link/ontology#startfixed": "false", "http://purl.org/dc/elements/1.1/identifier": "Dn8Bn0", "begin": "-0015", "end": "0008", "http://rdfs.org/ns/void#inDataset.value": "2539"}, "geometry": {"type": "Point", "coordinates": [8.233333, 47.46667], "crs": "4326"}}, {"type": "Feature", "id": "http://leiza-scit.github.io/CAA2026-alligator/l84Nog", "name": "Augsburg-Oberhausen (ae:l84Nog)", "dateprops": ["end"], "properties": {"http://www.w3.org/2000/01/rdf-schema#label": "Augsburg-Oberhausen", "http://archaeology.link/ontology#cax": "-0.2301", "http://archaeology.link/ontology#cay": "0.2052", "http://archaeology.link/ontology#caz": "-0.153", "http://archaeology.link/ontology#endfixed": "false", "http://archaeology.link/ontology#estimatedend": "9.0", "http://archaeology.link/ontology#estimatedstart": "-15.0", "http://archaeology.link/ontology#nfen": "Haltern", "http://archaeology.link/ontology#nfsn": "Neuss", "http://archaeology.link/ontology#osm_tag": "landuse=brownfield", "http://archaeology.link/ontology#startfixed": "false", "http://purl.org/dc/elements/1.1/identifier": "l84Nog", "begin": "-0015", "end": "0009", "http://rdfs.org/ns/void#inDataset.value": "2539"}, "geometry": {"type": "Point", "coordinates": [10.88173, 48.39021], "crs": "4326"}}, {"type": "Feature", "id": "http://leiza-scit.github.io/CAA2026-alligator/o3MwAm", "name": "Neuss (ae:o3MwAm)", "dateprops": ["end"], "properties": {"http://www.w3.org/2000/01/rdf-schema#label": "Neuss", "http://archaeology.link/ontology#cax": "-0.4107", "http://archaeology.link/ontology#cay": "0.0405", "http://archaeology.link/ontology#caz": "-0.055", "http://archaeology.link/ontology#endfixed": "false", "http://archaeology.link/ontology#estimatedend": "8.0", "http://archaeology.link/ontology#estimatedstart": "-15.0", "http://archaeology.link/ontology#nfen": "R\u00f6dgen", "http://archaeology.link/ontology#osm_tag": "historic=archaeological_site", "http://archaeology.link/ontology#startfixed": "true", "http://purl.org/dc/elements/1.1/identifier": "o3MwAm", "begin": "-0015", "end": "0008", "http://rdfs.org/ns/void#inDataset.value": "2539"}, "geometry": {"type": "Point", "coordinates": [6.721944, 51.183889], "crs": "4326"}}, {"type": "Feature", "id": "http://leiza-scit.github.io/CAA2026-alligator/site_Trier-Petrisberg", "name": "Trier-Petrisberg (ae:site_Trier-Petrisberg)", "dateprops": [], "properties": {"http://www.w3.org/2000/01/rdf-schema#label": "Trier-Petrisberg", "http://archaeology.link/ontology#osm_tag": "historic=archaeological_site", "http://rdfs.org/ns/void#inDataset.value": "2539", "end": ""}, "geometry": {"type": "Point", "coordinates": [6.664117, 49.752021], "crs": "4326"}}, {"type": "Feature", "id": "http://leiza-scit.github.io/CAA2026-alligator/dNoZ2V", "name": "Nijmegen, Valkhof (ae:dNoZ2V)", "dateprops": ["end"], "properties": {"http://www.w3.org/2000/01/rdf-schema#label": "Nijmegen, Valkhof", "http://archaeology.link/ontology#cax": "0.2432", "http://archaeology.link/ontology#cay": "0.1211", "http://archaeology.link/ontology#caz": "-0.268", "http://archaeology.link/ontology#endfixed": "false", "http://archaeology.link/ontology#estimatedend": "13.0", "http://archaeology.link/ontology#estimatedstart": "8.0", "http://archaeology.link/ontology#nfen": "Augst, Insula 31", "http://archaeology.link/ontology#nfsn": "Augst, Insula 31", "http://archaeology.link/ontology#osm_tag": "tourism=museum", "http://archaeology.link/ontology#startfixed": "false", "http://purl.org/dc/elements/1.1/identifier": "dNoZ2V", "begin": "0008", "end": "0013", "http://rdfs.org/ns/void#inDataset.value": "2539"}, "geometry": {"type": "Point", "coordinates": [5.884209, 51.839831], "crs": "4326"}}, {"type": "Feature", "id": "http://leiza-scit.github.io/CAA2026-alligator/y2x4m1", "name": "Vechten (ae:y2x4m1)", "dateprops": ["end"], "properties": {"http://www.w3.org/2000/01/rdf-schema#label": "Vechten", "http://archaeology.link/ontology#cax": "0.8037", "http://archaeology.link/ontology#cay": "-0.2304", "http://archaeology.link/ontology#caz": "0.3963", "http://archaeology.link/ontology#endfixed": "false", "http://archaeology.link/ontology#estimatedend": "28.0", "http://archaeology.link/ontology#estimatedstart": "16.0", "http://archaeology.link/ontology#nfen": "Velsen", "http://archaeology.link/ontology#nfsn": "Velsen", "http://archaeology.link/ontology#startfixed": "false", "http://purl.org/dc/elements/1.1/identifier": "y2x4m1", "begin": "0016", "end": "0028", "http://rdfs.org/ns/void#inDataset.value": "2539"}, "geometry": {"type": "Point", "coordinates": [5.16186, 52.05774], "crs": "4326"}}, {"type": "Feature", "id": "http://leiza-scit.github.io/CAA2026-alligator/VADk8Y", "name": "Nijmegen, Trajanusplein (ae:VADk8Y)", "dateprops": ["end"], "properties": {"http://www.w3.org/2000/01/rdf-schema#label": "Nijmegen, Trajanusplein", "http://archaeology.link/ontology#cax": "0.4147", "http://archaeology.link/ontology#cay": "0.0385", "http://archaeology.link/ontology#caz": "-0.4235", "http://archaeology.link/ontology#endfixed": "false", "http://archaeology.link/ontology#estimatedend": "13.0", "http://archaeology.link/ontology#estimatedstart": "8.0", "http://archaeology.link/ontology#nfen": "Augst, Insula 31", "http://archaeology.link/ontology#nfsn": "Augst, Insula 31", "http://archaeology.link/ontology#startfixed": "false", "http://purl.org/dc/elements/1.1/identifier": "VADk8Y", "begin": "0008", "end": "0013", "http://rdfs.org/ns/void#inDataset.value": "2539"}, "geometry": {"type": "Point", "coordinates": [5.884209, 51.839831], "crs": "4326"}}, {"type": "Feature", "id": "http://leiza-scit.github.io/CAA2026-alligator/XRJlAV", "name": "Conimbriga (ae:XRJlAV)", "dateprops": ["end"], "properties": {"http://www.w3.org/2000/01/rdf-schema#label": "Conimbriga", "http://archaeology.link/ontology#cax": "-0.1065", "http://archaeology.link/ontology#cay": "0.0456", "http://archaeology.link/ontology#caz": "-0.1097", "http://archaeology.link/ontology#endfixed": "false", "http://archaeology.link/ontology#estimatedend": "9.0", "http://archaeology.link/ontology#estimatedstart": "-7.0", "http://archaeology.link/ontology#nfen": "Haltern", "http://archaeology.link/ontology#nfsn": "Haltern", "http://archaeology.link/ontology#osm_tag": "historic=archaeological_site", "http://archaeology.link/ontology#startfixed": "false", "http://purl.org/dc/elements/1.1/identifier": "XRJlAV", "begin": "-0007", "end": "0009", "http://rdfs.org/ns/void#inDataset.value": "2539"}, "geometry": {"type": "Point", "coordinates": [-8.49341, 40.09905], "crs": "4326"}}, {"type": "Feature", "id": "http://leiza-scit.github.io/CAA2026-alligator/Y5e3Dg", "name": "Avenches, Insula 15 (ae:Y5e3Dg)", "dateprops": ["end"], "properties": {"http://www.w3.org/2000/01/rdf-schema#label": "Avenches, Insula 15", "http://archaeology.link/ontology#cax": "0.3853", "http://archaeology.link/ontology#cay": "-0.0153", "http://archaeology.link/ontology#caz": "-0.3444", "http://archaeology.link/ontology#endfixed": "false", "http://archaeology.link/ontology#estimatedend": "13.0", "http://archaeology.link/ontology#estimatedstart": "8.0", "http://archaeology.link/ontology#nfen": "Augst, Insula 31", "http://archaeology.link/ontology#nfsn": "Augst, Insula 31", "http://archaeology.link/ontology#osm_tag": "building=yes", "http://archaeology.link/ontology#startfixed": "false", "http://purl.org/dc/elements/1.1/identifier": "Y5e3Dg", "begin": "0008", "end": "0013", "http://rdfs.org/ns/void#inDataset.value": "2539"}, "geometry": {"type": "Point", "coordinates": [7.04067, 46.88028], "crs": "4326"}}, {"type": "Feature", "id": "http://leiza-scit.github.io/CAA2026-alligator/bmWAEr", "name": "Basel, Lager (ae:bmWAEr)", "dateprops": ["end"], "properties": {"http://www.w3.org/2000/01/rdf-schema#label": "Basel, Lager", "http://archaeology.link/ontology#cax": "-1.2041", "http://archaeology.link/ontology#cay": "-0.5444", "http://archaeology.link/ontology#caz": "-0.0093", "http://archaeology.link/ontology#endfixed": "false", "http://archaeology.link/ontology#estimatedend": "-9.0", "http://archaeology.link/ontology#estimatedstart": "-15.0", "http://archaeology.link/ontology#nfen": "Dangstetten", "http://archaeology.link/ontology#nfsn": "Dangstetten", "http://archaeology.link/ontology#osm_tag": "historic=archaeological_site", "http://archaeology.link/ontology#startfixed": "false", "http://purl.org/dc/elements/1.1/identifier": "bmWAEr", "begin": "-0015", "end": "-0009", "http://rdfs.org/ns/void#inDataset.value": "2539"}, "geometry": {"type": "Point", "coordinates": [7.593, 47.5557], "crs": "4326"}}, {"type": "Feature", "id": "http://leiza-scit.github.io/CAA2026-alligator/Jl2mN8", "name": "Zurzach, Lager (ae:Jl2mN8)", "dateprops": ["end"], "properties": {"http://www.w3.org/2000/01/rdf-schema#label": "Zurzach, Lager", "http://archaeology.link/ontology#cax": "0.6625", "http://archaeology.link/ontology#cay": "-0.054", "http://archaeology.link/ontology#caz": "-0.2208", "http://archaeology.link/ontology#endfixed": "false", "http://archaeology.link/ontology#estimatedend": "28.0", "http://archaeology.link/ontology#estimatedstart": "16.0", "http://archaeology.link/ontology#nfen": "Velsen", "http://archaeology.link/ontology#nfsn": "Velsen", "http://archaeology.link/ontology#osm_tag": "historic=archaeological_site", "http://archaeology.link/ontology#startfixed": "false", "http://purl.org/dc/elements/1.1/identifier": "Jl2mN8", "begin": "0016", "end": "0028", "http://rdfs.org/ns/void#inDataset.value": "2539"}, "geometry": {"type": "Point", "coordinates": [8.29349, 47.59059], "crs": "4326"}}, {"type": "Feature", "id": "http://leiza-scit.github.io/CAA2026-alligator/G3Yage", "name": "Nijmegen, Lager (Brunsting) (ae:G3Yage)", "dateprops": ["end"], "properties": {"http://www.w3.org/2000/01/rdf-schema#label": "Nijmegen, Lager (Brunsting)", "http://archaeology.link/ontology#cax": "0.3731", "http://archaeology.link/ontology#cay": "-0.0656", "http://archaeology.link/ontology#caz": "-0.2295", "http://archaeology.link/ontology#endfixed": "false", "http://archaeology.link/ontology#estimatedend": "9.0", "http://archaeology.link/ontology#estimatedstart": "-7.0", "http://archaeology.link/ontology#nfen": "Haltern", "http://archaeology.link/ontology#nfsn": "Haltern", "http://archaeology.link/ontology#startfixed": "false", "http://purl.org/dc/elements/1.1/identifier": "G3Yage", "begin": "-0007", "end": "0009", "http://rdfs.org/ns/void#inDataset.value": "2539"}, "geometry": {"type": "Point", "coordinates": [5.884209, 51.839831], "crs": "4326"}}, {"type": "Feature", "id": "http://leiza-scit.github.io/CAA2026-alligator/MqLE1V", "name": "Basel, Lagerdorf (ae:MqLE1V)", "dateprops": ["end"], "properties": {"http://www.w3.org/2000/01/rdf-schema#label": "Basel, Lagerdorf", "http://archaeology.link/ontology#cax": "-0.1599", "http://archaeology.link/ontology#cay": "0.0932", "http://archaeology.link/ontology#caz": "-0.0583", "http://archaeology.link/ontology#endfixed": "false", "http://archaeology.link/ontology#estimatedend": "9.0", "http://archaeology.link/ontology#estimatedstart": "-15.0", "http://archaeology.link/ontology#nfen": "Haltern", "http://archaeology.link/ontology#nfsn": "Neuss", "http://archaeology.link/ontology#osm_tag": "historic=archaeological_site", "http://archaeology.link/ontology#startfixed": "false", "http://purl.org/dc/elements/1.1/identifier": "MqLE1V", "begin": "-0015", "end": "0009", "http://rdfs.org/ns/void#inDataset.value": "2539"}, "geometry": {"type": "Point", "coordinates": [7.593, 47.5557], "crs": "4326"}}, {"type": "Feature", "id": "http://leiza-scit.github.io/CAA2026-alligator/OVXy7g", "name": "Oberaden (ae:OVXy7g)", "dateprops": ["end"], "properties": {"http://www.w3.org/2000/01/rdf-schema#label": "Oberaden", "http://archaeology.link/ontology#cax": "-0.6965", "http://archaeology.link/ontology#cay": "0.2155", "http://archaeology.link/ontology#caz": "0.4023", "http://archaeology.link/ontology#endfixed": "true", "http://archaeology.link/ontology#estimatedend": "-7.0", "http://archaeology.link/ontology#estimatedstart": "-11.0", "http://archaeology.link/ontology#osm_tag": "historic=archaeological_site", "http://archaeology.link/ontology#startfixed": "true", "http://purl.org/dc/elements/1.1/identifier": "OVXy7g", "begin": "-0011", "end": "-0007", "http://rdfs.org/ns/void#inDataset.value": "2539"}, "geometry": {"type": "Point", "coordinates": [7.58444, 51.6125], "crs": "4326"}}, {"type": "Feature", "id": "http://leiza-scit.github.io/CAA2026-alligator/ZleDlL", "name": "Dangstetten (ae:ZleDlL)", "dateprops": ["end"], "properties": {"http://www.w3.org/2000/01/rdf-schema#label": "Dangstetten", "http://archaeology.link/ontology#cax": "-1.0624", "http://archaeology.link/ontology#cay": "0.2223", "http://archaeology.link/ontology#caz": "0.5173", "http://archaeology.link/ontology#endfixed": "true", "http://archaeology.link/ontology#estimatedend": "-9.0", "http://archaeology.link/ontology#estimatedstart": "-15.0", "http://archaeology.link/ontology#osm_tag": "landuse=quarry", "http://archaeology.link/ontology#startfixed": "true", "http://purl.org/dc/elements/1.1/identifier": "ZleDlL", "begin": "-0015", "end": "-0009", "http://rdfs.org/ns/void#inDataset.value": "2539"}, "geometry": {"type": "Point", "coordinates": [8.31083, 47.58889], "crs": "4326"}}, {"type": "Feature", "id": "http://leiza-scit.github.io/CAA2026-alligator/nx57Z1", "name": "Bad Nauheim (ae:nx57Z1)", "dateprops": ["end"], "properties": {"http://www.w3.org/2000/01/rdf-schema#label": "Bad Nauheim", "http://archaeology.link/ontology#cax": "0.2199", "http://archaeology.link/ontology#cay": "0.034", "http://archaeology.link/ontology#caz": "-0.1879", "http://archaeology.link/ontology#endfixed": "false", "http://archaeology.link/ontology#estimatedend": "9.0", "http://archaeology.link/ontology#estimatedstart": "-7.0", "http://archaeology.link/ontology#nfen": "Haltern", "http://archaeology.link/ontology#nfsn": "Haltern", "http://archaeology.link/ontology#osm_tag": "historic=archaeological_site", "http://archaeology.link/ontology#startfixed": "false", "http://purl.org/dc/elements/1.1/identifier": "nx57Z1", "begin": "-0007", "end": "0009", "http://rdfs.org/ns/void#inDataset.value": "2539"}, "geometry": {"type": "Point", "coordinates": [8.7522, 50.36987], "crs": "4326"}}, {"type": "Feature", "id": "http://leiza-scit.github.io/CAA2026-alligator/Zdqgb9", "name": "Friedberg (ae:Zdqgb9)", "dateprops": ["end"], "properties": {"http://www.w3.org/2000/01/rdf-schema#label": "Friedberg", "http://archaeology.link/ontology#cax": "0.4748", "http://archaeology.link/ontology#cay": "0.0596", "http://archaeology.link/ontology#caz": "-0.3632", "http://archaeology.link/ontology#endfixed": "false", "http://archaeology.link/ontology#estimatedend": "13.0", "http://archaeology.link/ontology#estimatedstart": "8.0", "http://archaeology.link/ontology#nfen": "Augst, Insula 31", "http://archaeology.link/ontology#nfsn": "Augst, Insula 31", "http://archaeology.link/ontology#osm_tag": "place=hamlet", "http://archaeology.link/ontology#startfixed": "false", "http://purl.org/dc/elements/1.1/identifier": "Zdqgb9", "begin": "0008", "end": "0013", "http://rdfs.org/ns/void#inDataset.value": "2539"}, "geometry": {"type": "Point", "coordinates": [8.7535, 50.34167], "crs": "4326"}}, {"type": "Feature", "id": "http://leiza-scit.github.io/CAA2026-alligator/ZXxDlB", "name": "Lausanne-Vidy (ae:ZXxDlB)", "dateprops": ["end"], "properties": {"http://www.w3.org/2000/01/rdf-schema#label": "Lausanne-Vidy", "http://archaeology.link/ontology#cax": "-0.2726", "http://archaeology.link/ontology#cay": "-0.0157", "http://archaeology.link/ontology#caz": "-0.1228", "http://archaeology.link/ontology#endfixed": "false", "http://archaeology.link/ontology#estimatedend": "9.0", "http://archaeology.link/ontology#estimatedstart": "-15.0", "http://archaeology.link/ontology#nfen": "Haltern", "http://archaeology.link/ontology#nfsn": "Neuss", "http://archaeology.link/ontology#osm_tag": "historic=archaeological_site", "http://archaeology.link/ontology#startfixed": "false", "http://purl.org/dc/elements/1.1/identifier": "ZXxDlB", "begin": "-0015", "end": "0009", "http://rdfs.org/ns/void#inDataset.value": "2539"}, "geometry": {"type": "Point", "coordinates": [6.60087, 46.51651], "crs": "4326"}}, {"type": "Feature", "id": "http://leiza-scit.github.io/CAA2026-alligator/MZ2ObV", "name": "Asberg, Lagerdorf (ae:MZ2ObV)", "dateprops": ["end"], "properties": {"http://www.w3.org/2000/01/rdf-schema#label": "Asberg, Lagerdorf", "http://archaeology.link/ontology#cax": "0.2042", "http://archaeology.link/ontology#cay": "0.0864", "http://archaeology.link/ontology#caz": "-0.0158", "http://archaeology.link/ontology#endfixed": "false", "http://archaeology.link/ontology#estimatedend": "9.0", "http://archaeology.link/ontology#estimatedstart": "-7.0", "http://archaeology.link/ontology#nfen": "Haltern", "http://archaeology.link/ontology#nfsn": "Haltern", "http://archaeology.link/ontology#startfixed": "false", "http://purl.org/dc/elements/1.1/identifier": "MZ2ObV", "begin": "-0007", "end": "0009", "http://rdfs.org/ns/void#inDataset.value": "2539"}, "geometry": {"type": "Point", "coordinates": [6.67, 51.43167], "crs": "4326"}}, {"type": "Feature", "id": "http://leiza-scit.github.io/CAA2026-alligator/ZN6ywM", "name": "Bonn, Boeselagerhof (ae:ZN6ywM)", "dateprops": ["end"], "properties": {"http://www.w3.org/2000/01/rdf-schema#label": "Bonn, Boeselagerhof", "http://archaeology.link/ontology#cax": "-0.007", "http://archaeology.link/ontology#cay": "0.0597", "http://archaeology.link/ontology#caz": "-0.1639", "http://archaeology.link/ontology#endfixed": "false", "http://archaeology.link/ontology#estimatedend": "9.0", "http://archaeology.link/ontology#estimatedstart": "-7.0", "http://archaeology.link/ontology#nfen": "Haltern", "http://archaeology.link/ontology#nfsn": "Haltern", "http://archaeology.link/ontology#osm_tag": "information=tactile_model", "http://archaeology.link/ontology#startfixed": "false", "http://purl.org/dc/elements/1.1/identifier": "ZN6ywM", "begin": "-0007", "end": "0009", "http://rdfs.org/ns/void#inDataset.value": "2539"}, "geometry": {"type": "Point", "coordinates": [7.09938, 50.7448], "crs": "4326"}}, {"type": "Feature", "id": "http://leiza-scit.github.io/CAA2026-alligator/L77adz", "name": "R\u00f6dgen (ae:L77adz)", "dateprops": ["end"], "properties": {"http://www.w3.org/2000/01/rdf-schema#label": "R\u00f6dgen", "http://archaeology.link/ontology#cax": "-0.4825", "http://archaeology.link/ontology#cay": "0.1896", "http://archaeology.link/ontology#caz": "0.2972", "http://archaeology.link/ontology#endfixed": "true", "http://archaeology.link/ontology#estimatedend": "8.0", "http://archaeology.link/ontology#estimatedstart": "-12.0", "http://archaeology.link/ontology#osm_tag": "tourism=information", "http://archaeology.link/ontology#startfixed": "true", "http://purl.org/dc/elements/1.1/identifier": "L77adz", "begin": "-0012", "end": "0008", "http://rdfs.org/ns/void#inDataset.value": "2539"}, "geometry": {"type": "Point", "coordinates": [8.7665, 50.371], "crs": "4326"}}, {"type": "Feature", "id": "http://leiza-scit.github.io/CAA2026-alligator/YR56XQ", "name": "Lorenzberg (ae:YR56XQ)", "dateprops": ["end"], "properties": {"http://www.w3.org/2000/01/rdf-schema#label": "Lorenzberg", "http://archaeology.link/ontology#cax": "0.2099", "http://archaeology.link/ontology#cay": "0.065", "http://archaeology.link/ontology#caz": "0.039", "http://archaeology.link/ontology#endfixed": "false", "http://archaeology.link/ontology#estimatedend": "9.0", "http://archaeology.link/ontology#estimatedstart": "-7.0", "http://archaeology.link/ontology#nfen": "Haltern", "http://archaeology.link/ontology#nfsn": "Haltern", "http://archaeology.link/ontology#startfixed": "false", "http://purl.org/dc/elements/1.1/identifier": "YR56XQ", "begin": "-0007", "end": "0009", "http://rdfs.org/ns/void#inDataset.value": "2539"}, "geometry": {"type": "Point", "coordinates": [10.90977, 47.90988], "crs": "4326"}}, {"type": "Feature", "id": "http://leiza-scit.github.io/CAA2026-alligator/l7JM6p", "name": "Haltern (ae:l7JM6p)", "dateprops": ["end"], "properties": {"http://www.w3.org/2000/01/rdf-schema#label": "Haltern", "http://archaeology.link/ontology#cax": "0.1314", "http://archaeology.link/ontology#cay": "0.1361", "http://archaeology.link/ontology#caz": "-0.1036", "http://archaeology.link/ontology#endfixed": "true", "http://archaeology.link/ontology#estimatedend": "9.0", "http://archaeology.link/ontology#estimatedstart": "-7.0", "http://archaeology.link/ontology#osm_tag": "historic=archaeological_site", "http://archaeology.link/ontology#startfixed": "true", "http://purl.org/dc/elements/1.1/identifier": "l7JM6p", "begin": "-0007", "end": "0009", "http://rdfs.org/ns/void#inDataset.value": "2539"}, "geometry": {"type": "Point", "coordinates": [7.17052, 51.73947], "crs": "4326"}}, {"type": "Feature", "id": "http://leiza-scit.github.io/CAA2026-alligator/OgMWNb", "name": "Augsburg, Stadt (ae:OgMWNb)", "dateprops": ["end"], "properties": {"http://www.w3.org/2000/01/rdf-schema#label": "Augsburg, Stadt", "http://archaeology.link/ontology#cax": "0.5881", "http://archaeology.link/ontology#cay": "0.0313", "http://archaeology.link/ontology#caz": "-0.5718", "http://archaeology.link/ontology#endfixed": "false", "http://archaeology.link/ontology#estimatedend": "13.0", "http://archaeology.link/ontology#estimatedstart": "8.0", "http://archaeology.link/ontology#nfen": "Augst, Insula 31", "http://archaeology.link/ontology#nfsn": "Augst, Insula 31", "http://archaeology.link/ontology#startfixed": "false", "http://purl.org/dc/elements/1.1/identifier": "OgMWNb", "begin": "0008", "end": "0013", "http://rdfs.org/ns/void#inDataset.value": "2539"}, "geometry": {"type": "Point", "coordinates": [10.89655, 48.37277], "crs": "4326"}}, {"type": "Feature", "id": "http://leiza-scit.github.io/CAA2026-alligator/Voa579", "name": "Braives (ae:Voa579)", "dateprops": ["end"], "properties": {"http://www.w3.org/2000/01/rdf-schema#label": "Braives", "http://archaeology.link/ontology#cax": "0.186", "http://archaeology.link/ontology#cay": "-0.0421", "http://archaeology.link/ontology#caz": "0.267", "http://archaeology.link/ontology#endfixed": "false", "http://archaeology.link/ontology#estimatedend": "9.0", "http://archaeology.link/ontology#estimatedstart": "-7.0", "http://archaeology.link/ontology#nfen": "Haltern", "http://archaeology.link/ontology#nfsn": "Haltern", "http://archaeology.link/ontology#startfixed": "false", "http://purl.org/dc/elements/1.1/identifier": "Voa579", "begin": "-0007", "end": "0009", "http://rdfs.org/ns/void#inDataset.value": "2539"}, "geometry": {"type": "Point", "coordinates": [5.1455, 50.6296], "crs": "4326"}}, {"type": "Feature", "id": "http://leiza-scit.github.io/CAA2026-alligator/RxjVWG", "name": "Velsen (ae:RxjVWG)", "dateprops": ["end"], "properties": {"http://www.w3.org/2000/01/rdf-schema#label": "Velsen", "http://archaeology.link/ontology#cax": "0.8336", "http://archaeology.link/ontology#cay": "-0.1823", "http://archaeology.link/ontology#caz": "0.0086", "http://archaeology.link/ontology#endfixed": "true", "http://archaeology.link/ontology#estimatedend": "28.0", "http://archaeology.link/ontology#estimatedstart": "16.0", "http://archaeology.link/ontology#osm_tag": "natural=water", "http://archaeology.link/ontology#startfixed": "true", "http://purl.org/dc/elements/1.1/identifier": "RxjVWG", "begin": "0016", "end": "0028", "http://rdfs.org/ns/void#inDataset.value": "2539"}, "geometry": {"type": "Point", "coordinates": [4.66829, 52.45207], "crs": "4326"}}, {"type": "Feature", "id": "http://leiza-scit.github.io/CAA2026-alligator/Xdo5Y9", "name": "Oberwinterthur, R\u00f6merstr. 186 (ae:Xdo5Y9)", "dateprops": ["end"], "properties": {"http://www.w3.org/2000/01/rdf-schema#label": "Oberwinterthur, R\u00f6merstr. 186", "http://archaeology.link/ontology#cax": "0.479", "http://archaeology.link/ontology#cay": "0.0493", "http://archaeology.link/ontology#caz": "-0.5557", "http://archaeology.link/ontology#endfixed": "false", "http://archaeology.link/ontology#estimatedend": "13.0", "http://archaeology.link/ontology#estimatedstart": "8.0", "http://archaeology.link/ontology#nfen": "Augst, Insula 31", "http://archaeology.link/ontology#nfsn": "Augst, Insula 31", "http://archaeology.link/ontology#osm_tag": "building=appartments", "http://archaeology.link/ontology#startfixed": "false", "http://purl.org/dc/elements/1.1/identifier": "Xdo5Y9", "begin": "0008", "end": "0013", "http://rdfs.org/ns/void#inDataset.value": "2539"}, "geometry": {"type": "Point", "coordinates": [8.73756, 47.49726], "crs": "4326"}}, {"type": "Feature", "id": "http://leiza-scit.github.io/CAA2026-alligator/ZjEqbL", "name": "Vindonissa, Scheuerhof (ae:ZjEqbL)", "dateprops": ["end"], "properties": {"http://www.w3.org/2000/01/rdf-schema#label": "Vindonissa, Scheuerhof", "http://archaeology.link/ontology#cax": "0.137", "http://archaeology.link/ontology#cay": "0.1014", "http://archaeology.link/ontology#caz": "0.0032", "http://archaeology.link/ontology#endfixed": "false", "http://archaeology.link/ontology#estimatedend": "9.0", "http://archaeology.link/ontology#estimatedstart": "-7.0", "http://archaeology.link/ontology#nfen": "Haltern", "http://archaeology.link/ontology#nfsn": "Haltern", "http://archaeology.link/ontology#osm_tag": "historic=castle", "http://archaeology.link/ontology#startfixed": "false", "http://purl.org/dc/elements/1.1/identifier": "ZjEqbL", "begin": "-0007", "end": "0009", "http://rdfs.org/ns/void#inDataset.value": "2539"}, "geometry": {"type": "Point", "coordinates": [8.233333, 47.46667], "crs": "4326"}}, {"type": "Feature", "id": "http://leiza-scit.github.io/CAA2026-alligator/zmqV3M", "name": "Z\u00fcrich, Lindenhof (ae:zmqV3M)", "dateprops": ["end"], "properties": {"http://www.w3.org/2000/01/rdf-schema#label": "Z\u00fcrich, Lindenhof", "http://archaeology.link/ontology#cax": "-1.5681", "http://archaeology.link/ontology#cay": "-3.3957", "http://archaeology.link/ontology#caz": "-0.2093", "http://archaeology.link/ontology#endfixed": "false", "http://archaeology.link/ontology#estimatedend": "-9.0", "http://archaeology.link/ontology#estimatedstart": "-15.0", "http://archaeology.link/ontology#nfen": "Dangstetten", "http://archaeology.link/ontology#nfsn": "Neuss", "http://archaeology.link/ontology#osm_tag": "historic=archaeological_site", "http://archaeology.link/ontology#startfixed": "false", "http://purl.org/dc/elements/1.1/identifier": "zmqV3M", "begin": "-0015", "end": "-0009", "http://rdfs.org/ns/void#inDataset.value": "2539"}, "geometry": {"type": "Point", "coordinates": [8.540724, 47.373008], "crs": "4326"}}, {"type": "Feature", "id": "http://leiza-scit.github.io/CAA2026-alligator/PwKzM5", "name": "Augst, Insula 31 (ae:PwKzM5)", "dateprops": ["end"], "properties": {"http://www.w3.org/2000/01/rdf-schema#label": "Augst, Insula 31", "http://archaeology.link/ontology#cax": "0.0998", "http://archaeology.link/ontology#cay": "0.1164", "http://archaeology.link/ontology#caz": "-0.3233", "http://archaeology.link/ontology#endfixed": "true", "http://archaeology.link/ontology#estimatedend": "13.0", "http://archaeology.link/ontology#estimatedstart": "8.0", "http://archaeology.link/ontology#osm_tag": "building=yes", "http://archaeology.link/ontology#startfixed": "true", "http://purl.org/dc/elements/1.1/identifier": "PwKzM5", "begin": "0008", "end": "0013", "http://rdfs.org/ns/void#inDataset.value": "2539"}, "geometry": {"type": "Point", "coordinates": [7.72231, 47.53323], "crs": "4326"}}, {"type": "Feature", "id": "http://leiza-scit.github.io/CAA2026-alligator/ZEvk2q", "name": "Augst, Insula 20 (ae:ZEvk2q)", "dateprops": ["end"], "properties": {"http://www.w3.org/2000/01/rdf-schema#label": "Augst, Insula 20", "http://archaeology.link/ontology#cax": "0.5106", "http://archaeology.link/ontology#cay": "-0.1593", "http://archaeology.link/ontology#caz": "0.2908", "http://archaeology.link/ontology#endfixed": "false", "http://archaeology.link/ontology#estimatedend": "28.0", "http://archaeology.link/ontology#estimatedstart": "16.0", "http://archaeology.link/ontology#nfen": "Velsen", "http://archaeology.link/ontology#nfsn": "Velsen", "http://archaeology.link/ontology#osm_tag": "building=yes", "http://archaeology.link/ontology#startfixed": "false", "http://purl.org/dc/elements/1.1/identifier": "ZEvk2q", "begin": "0016", "end": "0028", "http://rdfs.org/ns/void#inDataset.value": "2539"}, "geometry": {"type": "Point", "coordinates": [7.72231, 47.53323], "crs": "4326"}}, {"type": "Feature", "id": "http://leiza-scit.github.io/CAA2026-alligator/X38zVk", "name": "Titelberg (ae:X38zVk)", "dateprops": ["end"], "properties": {"http://www.w3.org/2000/01/rdf-schema#label": "Titelberg", "http://archaeology.link/ontology#cax": "-1.2119", "http://archaeology.link/ontology#cay": "-0.3813", "http://archaeology.link/ontology#caz": "-0.0643", "http://archaeology.link/ontology#endfixed": "false", "http://archaeology.link/ontology#estimatedend": "-9.0", "http://archaeology.link/ontology#estimatedstart": "-15.0", "http://archaeology.link/ontology#nfen": "Dangstetten", "http://archaeology.link/ontology#nfsn": "Dangstetten", "http://archaeology.link/ontology#osm_tag": "historic=archaeological_site", "http://archaeology.link/ontology#startfixed": "false", "http://purl.org/dc/elements/1.1/identifier": "X38zVk", "begin": "-0015", "end": "-0009", "http://rdfs.org/ns/void#inDataset.value": "2539"}, "geometry": {"type": "Point", "coordinates": [5.85972, 49.54028], "crs": "4326"}}, {"type": "Feature", "id": "http://leiza-scit.github.io/CAA2026-alligator/k8nxQm", "name": "Worms (ae:k8nxQm)", "dateprops": ["end"], "properties": {"http://www.w3.org/2000/01/rdf-schema#label": "Worms", "http://archaeology.link/ontology#cax": "-0.5313", "http://archaeology.link/ontology#cay": "0.4841", "http://archaeology.link/ontology#caz": "-0.5543", "http://archaeology.link/ontology#endfixed": "false", "http://archaeology.link/ontology#estimatedend": "13.0", "http://archaeology.link/ontology#estimatedstart": "-15.0", "http://archaeology.link/ontology#nfen": "Augst, Insula 31", "http://archaeology.link/ontology#nfsn": "Neuss", "http://archaeology.link/ontology#startfixed": "false", "http://purl.org/dc/elements/1.1/identifier": "k8nxQm", "begin": "-0015", "end": "0013", "http://rdfs.org/ns/void#inDataset.value": "2539"}, "geometry": {"type": "Point", "coordinates": [8.35978, 49.63007], "crs": "4326"}}, {"type": "Feature", "id": "http://leiza-scit.github.io/CAA2026-alligator/JeMZlk", "name": "Nijmegen, Lager (Haalebos) (ae:JeMZlk)", "dateprops": ["end"], "properties": {"http://www.w3.org/2000/01/rdf-schema#label": "Nijmegen, Lager (Haalebos)", "http://archaeology.link/ontology#cax": "-1.9696", "http://archaeology.link/ontology#cay": "-4.3352", "http://archaeology.link/ontology#caz": "-0.6857", "http://archaeology.link/ontology#endfixed": "false", "http://archaeology.link/ontology#estimatedend": "-9.0", "http://archaeology.link/ontology#estimatedstart": "-15.0", "http://archaeology.link/ontology#nfen": "Dangstetten", "http://archaeology.link/ontology#nfsn": "Neuss", "http://archaeology.link/ontology#startfixed": "false", "http://purl.org/dc/elements/1.1/identifier": "JeMZlk", "begin": "-0015", "end": "-0009", "http://rdfs.org/ns/void#inDataset.value": "2539"}, "geometry": {"type": "Point", "coordinates": [5.884209, 51.839831], "crs": "4326"}}, {"type": "Feature", "id": "http://leiza-scit.github.io/CAA2026-alligator/WA9n3v", "name": "Asberg, Lager (ae:WA9n3v)", "dateprops": ["end"], "properties": {"http://www.w3.org/2000/01/rdf-schema#label": "Asberg, Lager", "http://archaeology.link/ontology#cax": "-0.323", "http://archaeology.link/ontology#cay": "0.1081", "http://archaeology.link/ontology#caz": "0.1243", "http://archaeology.link/ontology#endfixed": "false", "http://archaeology.link/ontology#estimatedend": "8.0", "http://archaeology.link/ontology#estimatedstart": "-15.0", "http://archaeology.link/ontology#nfen": "R\u00f6dgen", "http://archaeology.link/ontology#nfsn": "Neuss", "http://archaeology.link/ontology#osm_tag": "natural=scrub", "http://archaeology.link/ontology#startfixed": "false", "http://purl.org/dc/elements/1.1/identifier": "WA9n3v", "begin": "-0015", "end": "0008", "http://rdfs.org/ns/void#inDataset.value": "2539"}, "geometry": {"type": "Point", "coordinates": [6.67, 51.43167], "crs": "4326"}}, {"type": "Feature", "id": "http://leiza-scit.github.io/CAA2026-alligator/gJnjWe", "name": "Vetera I (ae:gJnjWe)", "dateprops": ["end"], "properties": {"http://www.w3.org/2000/01/rdf-schema#label": "Vetera I", "http://archaeology.link/ontology#cax": "0.4039", "http://archaeology.link/ontology#cay": "-0.0911", "http://archaeology.link/ontology#caz": "0.218", "http://archaeology.link/ontology#endfixed": "false", "http://archaeology.link/ontology#estimatedend": "9.0", "http://archaeology.link/ontology#estimatedstart": "-7.0", "http://archaeology.link/ontology#nfen": "Haltern", "http://archaeology.link/ontology#nfsn": "Haltern", "http://archaeology.link/ontology#startfixed": "false", "http://purl.org/dc/elements/1.1/identifier": "gJnjWe", "begin": "-0007", "end": "0009", "http://rdfs.org/ns/void#inDataset.value": "2539"}, "geometry": {"type": "Point", "coordinates": [6.46999, 51.64639], "crs": "4326"}}, {"type": "Feature", "id": "http://leiza-scit.github.io/CAA2026-alligator/Wr3Lvj", "name": "Tongeren (ae:Wr3Lvj)", "dateprops": ["end"], "properties": {"http://www.w3.org/2000/01/rdf-schema#label": "Tongeren", "http://archaeology.link/ontology#cax": "0.063", "http://archaeology.link/ontology#cay": "0.0097", "http://archaeology.link/ontology#caz": "0.1545", "http://archaeology.link/ontology#endfixed": "false", "http://archaeology.link/ontology#estimatedend": "9.0", "http://archaeology.link/ontology#estimatedstart": "-7.0", "http://archaeology.link/ontology#nfen": "Haltern", "http://archaeology.link/ontology#nfsn": "Haltern", "http://archaeology.link/ontology#osm_tag": "historic=archaeological_site", "http://archaeology.link/ontology#startfixed": "false", "http://purl.org/dc/elements/1.1/identifier": "Wr3Lvj", "begin": "-0007", "end": "0009", "http://rdfs.org/ns/void#inDataset.value": "2539"}, "geometry": {"type": "Point", "coordinates": [5.46486, 50.78096], "crs": "4326"}}, {"type": "Feature", "id": "http://leiza-scit.github.io/CAA2026-alligator/WVBqb6", "name": "Namur (ae:WVBqb6)", "dateprops": ["end"], "properties": {"http://www.w3.org/2000/01/rdf-schema#label": "Namur", "http://archaeology.link/ontology#cax": "-0.1435", "http://archaeology.link/ontology#cay": "0.2008", "http://archaeology.link/ontology#caz": "0.3545", "http://archaeology.link/ontology#endfixed": "false", "http://archaeology.link/ontology#estimatedend": "8.0", "http://archaeology.link/ontology#estimatedstart": "-12.0", "http://archaeology.link/ontology#nfen": "R\u00f6dgen", "http://archaeology.link/ontology#nfsn": "R\u00f6dgen", "http://archaeology.link/ontology#startfixed": "false", "http://purl.org/dc/elements/1.1/identifier": "WVBqb6", "begin": "-0012", "end": "0008", "http://rdfs.org/ns/void#inDataset.value": "2539"}, "geometry": {"type": "Point", "coordinates": [4.86063, 50.45949], "crs": "4326"}}, {"type": "Feature", "id": "http://leiza-scit.github.io/CAA2026-alligator/YRRWbO", "name": "Augst, Theater (ae:YRRWbO)", "dateprops": ["end"], "properties": {"http://www.w3.org/2000/01/rdf-schema#label": "Augst, Theater", "http://archaeology.link/ontology#cax": "0.7059", "http://archaeology.link/ontology#cay": "-0.0757", "http://archaeology.link/ontology#caz": "-0.2543", "http://archaeology.link/ontology#endfixed": "false", "http://archaeology.link/ontology#estimatedend": "28.0", "http://archaeology.link/ontology#estimatedstart": "16.0", "http://archaeology.link/ontology#nfen": "Velsen", "http://archaeology.link/ontology#nfsn": "Velsen", "http://archaeology.link/ontology#osm_tag": "historic=archaeological_site", "http://archaeology.link/ontology#startfixed": "false", "http://purl.org/dc/elements/1.1/identifier": "YRRWbO", "begin": "0016", "end": "0028", "http://rdfs.org/ns/void#inDataset.value": "2539"}, "geometry": {"type": "Point", "coordinates": [7.72231, 47.53323], "crs": "4326"}}, {"type": "Feature", "id": "http://leiza-scit.github.io/CAA2026-alligator/oppg2W", "name": "Mainz, Legionslager (ae:oppg2W)", "dateprops": ["end"], "properties": {"http://www.w3.org/2000/01/rdf-schema#label": "Mainz, Legionslager", "http://archaeology.link/ontology#cax": "0.0331", "http://archaeology.link/ontology#cay": "0.0481", "http://archaeology.link/ontology#caz": "0.2022", "http://archaeology.link/ontology#endfixed": "false", "http://archaeology.link/ontology#estimatedend": "9.0", "http://archaeology.link/ontology#estimatedstart": "-7.0", "http://archaeology.link/ontology#nfen": "Haltern", "http://archaeology.link/ontology#nfsn": "Haltern", "http://archaeology.link/ontology#osm_tag": "historic=archaeological_site", "http://archaeology.link/ontology#startfixed": "false", "http://purl.org/dc/elements/1.1/identifier": "oppg2W", "begin": "-0007", "end": "0009", "http://rdfs.org/ns/void#inDataset.value": "2539"}, "geometry": {"type": "Point", "coordinates": [8.27387, 49.99891], "crs": "4326"}}, {"type": "Feature", "id": "http://leiza-scit.github.io/CAA2026-alligator/k24W0n", "name": "Wiesbaden (ae:k24W0n)", "dateprops": ["end"], "properties": {"http://www.w3.org/2000/01/rdf-schema#label": "Wiesbaden", "http://archaeology.link/ontology#cax": "0.4593", "http://archaeology.link/ontology#cay": "0.0995", "http://archaeology.link/ontology#caz": "-0.5028", "http://archaeology.link/ontology#endfixed": "false", "http://archaeology.link/ontology#estimatedend": "13.0", "http://archaeology.link/ontology#estimatedstart": "8.0", "http://archaeology.link/ontology#nfen": "Augst, Insula 31", "http://archaeology.link/ontology#nfsn": "Augst, Insula 31", "http://archaeology.link/ontology#osm_tag": "tourism=attraction", "http://archaeology.link/ontology#startfixed": "false", "http://purl.org/dc/elements/1.1/identifier": "k24W0n", "begin": "0008", "end": "0013", "http://rdfs.org/ns/void#inDataset.value": "2539"}, "geometry": {"type": "Point", "coordinates": [8.23879, 50.08434], "crs": "4326"}}, {"type": "Feature", "id": "http://leiza-scit.github.io/CAA2026-alligator/l5MgeA", "name": "Maastricht (ae:l5MgeA)", "dateprops": ["end"], "properties": {"http://www.w3.org/2000/01/rdf-schema#label": "Maastricht", "http://archaeology.link/ontology#cax": "0.8086", "http://archaeology.link/ontology#cay": "-0.2157", "http://archaeology.link/ontology#caz": "0.4184", "http://archaeology.link/ontology#endfixed": "false", "http://archaeology.link/ontology#estimatedend": "28.0", "http://archaeology.link/ontology#estimatedstart": "16.0", "http://archaeology.link/ontology#nfen": "Velsen", "http://archaeology.link/ontology#nfsn": "Velsen", "http://archaeology.link/ontology#osm_tag": "tourism=museum", "http://archaeology.link/ontology#startfixed": "false", "http://purl.org/dc/elements/1.1/identifier": "l5MgeA", "begin": "0016", "end": "0028", "http://rdfs.org/ns/void#inDataset.value": "2539"}, "geometry": {"type": "Point", "coordinates": [5.6938, 50.84841], "crs": "4326"}}, {"type": "Feature", "id": "http://leiza-scit.github.io/CAA2026-alligator/A4m6Rv", "name": "Bregenz (ae:A4m6Rv)", "dateprops": ["end"], "properties": {"http://www.w3.org/2000/01/rdf-schema#label": "Bregenz", "http://archaeology.link/ontology#cax": "0.3196", "http://archaeology.link/ontology#cay": "0.1604", "http://archaeology.link/ontology#caz": "-0.7664", "http://archaeology.link/ontology#endfixed": "false", "http://archaeology.link/ontology#estimatedend": "13.0", "http://archaeology.link/ontology#estimatedstart": "8.0", "http://archaeology.link/ontology#nfen": "Augst, Insula 31", "http://archaeology.link/ontology#nfsn": "Augst, Insula 31", "http://archaeology.link/ontology#startfixed": "false", "http://purl.org/dc/elements/1.1/identifier": "A4m6Rv", "begin": "0008", "end": "0013", "http://rdfs.org/ns/void#inDataset.value": "2539"}, "geometry": {"type": "Point", "coordinates": [9.74073, 47.4979], "crs": "4326"}}], "numberMatched": 45, "numberReturned": 45, "bbox": [-8.49341, 40.09905, 10.90977, 52.45207], "crs": "http://www.opengis.net/def/crs/EPSG/0/4326"}