{"type": "FeatureCollection", "id": "http://leiza-scit.github.io/CAA2026-alligator/LineString_collection", "name": "LineString Instances Collection", "features": [{"type": "Feature", "id": "http://leiza-scit.github.io/CAA2026-alligator/collections/cluster_bc0012_ad0008_geom", "name": " (aecol:cluster_bc0012_ad0008_geom)", "dateprops": [], "properties": {"http://rdfs.org/ns/void#inDataset.value": "2539"}, "geometry": {"type": "LineString", "coordinates": [[8.7665, 50.371], [4.86063, 50.45949]], "crs": "4326"}}], "numberMatched": 1, "numberReturned": 1, "bbox": [4.86063, 50.371, 8.7665, 50.45949], "crs": "http://www.opengis.net/def/crs/EPSG/0/4326"}