{"type": "FeatureCollection", "id": "http://leiza-scit.github.io/CAA2026-alligator/Polygon_collection", "name": "Polygon Instances Collection", "features": [{"type": "Feature", "id": "http://leiza-scit.github.io/CAA2026-alligator/collections/horizon_3_geom", "name": " (aecol:horizon_3_geom)", "dateprops": [], "properties": {"http://rdfs.org/ns/void#inDataset.value": "259"}, "geometry": {"type": "Polygon", "coordinates": [[[-8.49341, 40.09905], [5.884209, 51.839831], [7.17052, 51.73947], [8.7522, 50.36987], [10.90977, 47.90988], [-8.49341, 40.09905]]], "crs": "4326"}}, {"type": "Feature", "id": "http://leiza-scit.github.io/CAA2026-alligator/collections/horizon_4_geom", "name": " (aecol:horizon_4_geom)", "dateprops": [], "properties": {"http://rdfs.org/ns/void#inDataset.value": "259"}, "geometry": {"type": "Polygon", "coordinates": [[[7.04067, 46.88028], [5.884209, 51.839831], [8.7535, 50.34167], [10.89655, 48.37277], [9.74073, 47.4979], [7.04067, 46.88028]]], "crs": "4326"}}, {"type": "Feature", "id": "http://leiza-scit.github.io/CAA2026-alligator/collections/cluster_ad0008_ad0013_geom", "name": " (aecol:cluster_ad0008_ad0013_geom)", "dateprops": [], "properties": {"http://rdfs.org/ns/void#inDataset.value": "259"}, "geometry": {"type": "Polygon", "coordinates": [[[7.04067, 46.88028], [5.884209, 51.839831], [8.7535, 50.34167], [10.89655, 48.37277], [9.74073, 47.4979], [7.04067, 46.88028]]], "crs": "4326"}}, {"type": "Feature", "id": "http://leiza-scit.github.io/CAA2026-alligator/collections/cluster_bc0015_bc0009_geom", "name": " (aecol:cluster_bc0015_bc0009_geom)", "dateprops": [], "properties": {"http://rdfs.org/ns/void#inDataset.value": "259"}, "geometry": {"type": "Polygon", "coordinates": [[[8.540724, 47.373008], [7.593, 47.5557], [5.85972, 49.54028], [5.884209, 51.839831], [8.540724, 47.373008]]], "crs": "4326"}}, {"type": "Feature", "id": "http://leiza-scit.github.io/CAA2026-alligator/collections/horizon_1_geom", "name": " (aecol:horizon_1_geom)", "dateprops": [], "properties": {"http://rdfs.org/ns/void#inDataset.value": "259"}, "geometry": {"type": "Polygon", "coordinates": [[[8.540724, 47.373008], [7.593, 47.5557], [5.85972, 49.54028], [5.884209, 51.839831], [7.58444, 51.6125], [8.540724, 47.373008]]], "crs": "4326"}}, {"type": "Feature", "id": "http://leiza-scit.github.io/CAA2026-alligator/collections/cluster_bc0015_ad0009_geom", "name": " (aecol:cluster_bc0015_ad0009_geom)", "dateprops": [], "properties": {"http://rdfs.org/ns/void#inDataset.value": "259"}, "geometry": {"type": "Polygon", "coordinates": [[[6.60087, 46.51651], [4.44349, 50.51455], [6.67, 51.43167], [10.88173, 48.39021], [6.60087, 46.51651]]], "crs": "4326"}}, {"type": "Feature", "id": "http://leiza-scit.github.io/CAA2026-alligator/collections/cluster_ad0016_ad0028_geom", "name": " (aecol:cluster_ad0016_ad0028_geom)", "dateprops": [], "properties": {"http://rdfs.org/ns/void#inDataset.value": "259"}, "geometry": {"type": "Polygon", "coordinates": [[[7.72231, 47.53323], [4.66829, 52.45207], [5.16186, 52.05774], [8.29349, 47.59059], [7.72231, 47.53323]]], "crs": "4326"}}, {"type": "Feature", "id": "http://leiza-scit.github.io/CAA2026-alligator/collections/horizon_5_geom", "name": " (aecol:horizon_5_geom)", "dateprops": [], "properties": {"http://rdfs.org/ns/void#inDataset.value": "259"}, "geometry": {"type": "Polygon", "coordinates": [[[7.72231, 47.53323], [4.66829, 52.45207], [5.16186, 52.05774], [8.29349, 47.59059], [7.72231, 47.53323]]], "crs": "4326"}}, {"type": "Feature", "id": "http://leiza-scit.github.io/CAA2026-alligator/collections/horizon_2_geom", "name": " (aecol:horizon_2_geom)", "dateprops": [], "properties": {"http://rdfs.org/ns/void#inDataset.value": "259"}, "geometry": {"type": "Polygon", "coordinates": [[[6.60087, 46.51651], [4.44349, 50.51455], [6.67, 51.43167], [8.7665, 50.371], [10.88173, 48.39021], [6.60087, 46.51651]]], "crs": "4326"}}, {"type": "Feature", "id": "http://leiza-scit.github.io/CAA2026-alligator/collections/cluster_bc0007_ad0009_geom", "name": " (aecol:cluster_bc0007_ad0009_geom)", "dateprops": [], "properties": {"http://rdfs.org/ns/void#inDataset.value": "259"}, "geometry": {"type": "Polygon", "coordinates": [[[-8.49341, 40.09905], [5.884209, 51.839831], [7.17052, 51.73947], [8.7522, 50.36987], [10.90977, 47.90988], [-8.49341, 40.09905]]], "crs": "4326"}}], "numberMatched": 10, "numberReturned": 10, "bbox": [-8.49341, 40.09905, 10.90977, 52.45207], "crs": "http://www.opengis.net/def/crs/EPSG/0/4326"}