{"type": "FeatureCollection", "id": "http://leiza-scit.github.io/CAA2026-alligator/E4_Period_collection", "name": "E4_Period Instances Collection", "features": [{"type": "Feature", "id": "http://leiza-scit.github.io/CAA2026-alligator/collections/horizon_1", "name": "Horizon 1 (15 av. J.-C. \u2013 7 av. J.-C.) (aecol:horizon_1)", "dateprops": ["end"], "properties": {"http://www.w3.org/2000/01/rdf-schema#label": "Horizon 1 (15 av. J.-C. \u2013 7 av. J.-C.)", "http://www.w3.org/2004/02/skos/core#notation": "1", "begin": "-0015", "end": "-0007", "http://rdfs.org/ns/void#inDataset.value": "259"}, "geometry": {"type": "Polygon", "coordinates": [[[8.540724, 47.373008], [7.593, 47.5557], [5.85972, 49.54028], [5.884209, 51.839831], [7.58444, 51.6125], [8.540724, 47.373008]]], "crs": "4326"}}, {"type": "Feature", "id": "http://leiza-scit.github.io/CAA2026-alligator/collections/horizon_4", "name": "Horizon 4 (8 apr. J.-C. \u2013 13 apr. J.-C.) (aecol:horizon_4)", "dateprops": ["end"], "properties": {"http://www.w3.org/2000/01/rdf-schema#label": "Horizon 4 (8 apr. J.-C. \u2013 13 apr. J.-C.)", "http://www.w3.org/2004/02/skos/core#notation": "4", "begin": "0008", "end": "0013", "http://rdfs.org/ns/void#inDataset.value": "259"}, "geometry": {"type": "Polygon", "coordinates": [[[7.04067, 46.88028], [5.884209, 51.839831], [8.7535, 50.34167], [10.89655, 48.37277], [9.74073, 47.4979], [7.04067, 46.88028]]], "crs": "4326"}}, {"type": "Feature", "id": "http://leiza-scit.github.io/CAA2026-alligator/collections/horizon_2", "name": "Horizon 2 (15 av. J.-C. \u2013 13 apr. J.-C.) (aecol:horizon_2)", "dateprops": ["end"], "properties": {"http://www.w3.org/2000/01/rdf-schema#label": "Horizon 2 (15 av. J.-C. \u2013 13 apr. J.-C.)", "http://www.w3.org/2004/02/skos/core#notation": "2", "begin": "-0015", "end": "0013", "http://rdfs.org/ns/void#inDataset.value": "259"}, "geometry": {"type": "Polygon", "coordinates": [[[6.60087, 46.51651], [4.44349, 50.51455], [6.67, 51.43167], [8.7665, 50.371], [10.88173, 48.39021], [6.60087, 46.51651]]], "crs": "4326"}}, {"type": "Feature", "id": "http://leiza-scit.github.io/CAA2026-alligator/collections/horizon_5", "name": "Horizon 5 (16 apr. J.-C. \u2013 28 apr. J.-C.) (aecol:horizon_5)", "dateprops": ["end"], "properties": {"http://www.w3.org/2000/01/rdf-schema#label": "Horizon 5 (16 apr. J.-C. \u2013 28 apr. J.-C.)", "http://www.w3.org/2004/02/skos/core#notation": "5", "begin": "0016", "end": "0028", "http://rdfs.org/ns/void#inDataset.value": "259"}, "geometry": {"type": "Polygon", "coordinates": [[[7.72231, 47.53323], [4.66829, 52.45207], [5.16186, 52.05774], [8.29349, 47.59059], [7.72231, 47.53323]]], "crs": "4326"}}, {"type": "Feature", "id": "http://leiza-scit.github.io/CAA2026-alligator/collections/horizon_3", "name": "Horizon 3 (7 av. J.-C. \u2013 9 apr. J.-C.) (aecol:horizon_3)", "dateprops": ["end"], "properties": {"http://www.w3.org/2000/01/rdf-schema#label": "Horizon 3 (7 av. J.-C. \u2013 9 apr. J.-C.)", "http://www.w3.org/2004/02/skos/core#notation": "3", "begin": "-0007", "end": "0009", "http://rdfs.org/ns/void#inDataset.value": "259"}, "geometry": {"type": "Polygon", "coordinates": [[[-8.49341, 40.09905], [5.884209, 51.839831], [7.17052, 51.73947], [8.7522, 50.36987], [10.90977, 47.90988], [-8.49341, 40.09905]]], "crs": "4326"}}], "numberMatched": 5, "numberReturned": 5, "bbox": [-8.49341, 40.09905, 10.90977, 52.45207], "crs": "http://www.opengis.net/def/crs/EPSG/0/4326"}